{"type":"Feature","properties":{"key":"albispass"},"geometry":{"type":"LineString","coordinates":[[8.5239556,47.310009],[8.5240974,47.3091006],[8.524068,47.3089908],[8.5240844,47.3087805],[8.5241036,47.3084642],[8.5241063,47.3081067],[8.5240952,47.3079009],[8.5240744,47.3076994],[8.5240047,47.3073048],[8.5239116,47.3069275],[8.523813,47.3066118],[8.5237062,47.3062979],[8.5235961,47.3059948],[8.5234704,47.305657],[8.5233218,47.3052529],[8.5231168,47.3047003],[8.5231066,47.3045578],[8.5230561,47.3043673],[8.5230215,47.3042076],[8.5230113,47.304044],[8.5230156,47.3038702],[8.5230538,47.3036851],[8.523122,47.3034981],[8.5232258,47.3032998],[8.5233383,47.303136],[8.5235018,47.3029588],[8.5236707,47.3028175],[8.5238875,47.3026663],[8.5241311,47.3025319],[8.5242167,47.3024903],[8.5244371,47.3023984],[8.524615,47.3023361],[8.5249157,47.3022414],[8.5250895,47.3021941],[8.525492,47.3020916],[8.5258916,47.3019986],[8.5261574,47.3019294],[8.5263396,47.3018811],[8.5265137,47.3018286],[8.5267211,47.3017621],[8.5268653,47.3017115],[8.5269998,47.3016621],[8.5271527,47.3016037],[8.527307,47.3015413],[8.5274825,47.3014688],[8.5277357,47.301351],[8.5279713,47.3012332],[8.5281166,47.301154],[8.5283459,47.3010242],[8.5285634,47.3008927],[8.5288246,47.3007264],[8.5291755,47.3004892],[8.5296155,47.3001883],[8.5300446,47.299904],[8.5301666,47.2998195],[8.5303071,47.2997247],[8.5305248,47.2996141],[8.5308786,47.2993828],[8.5312331,47.2991618],[8.5315835,47.2989593],[8.5320626,47.2986991],[8.5324495,47.2984998],[8.5325889,47.2984027],[8.5328442,47.2982743],[8.5333562,47.2979914],[8.5338603,47.2976926],[8.5340189,47.2975827],[8.5344065,47.2972971],[8.5349631,47.2968837],[8.5350548,47.2968156],[8.5385153,47.2942452],[8.5391396,47.2937653],[8.5397383,47.293257],[8.5402915,47.2927868],[8.5404435,47.2926568],[8.5406872,47.292455],[8.5410351,47.2921627],[8.5412273,47.2919967],[8.5418255,47.2914741],[8.5422717,47.2910411],[8.5425594,47.2907619],[8.5427247,47.2905997],[8.5428021,47.290516],[8.5429126,47.2904039],[8.5430825,47.2902133],[8.5432613,47.2899458],[8.5433197,47.2898385],[8.5433623,47.2897204],[8.5434024,47.2894747],[8.5434662,47.2884018],[8.5434756,47.2882052],[8.5434796,47.2880222],[8.5434837,47.2878217],[8.543487,47.287661],[8.543328,47.2876771],[8.5432568,47.2876853],[8.5432025,47.2877032],[8.5431696,47.2877231],[8.5431475,47.2877404],[8.5431247,47.2877658],[8.5431072,47.2877904],[8.5430866,47.2878337],[8.5430254,47.2879235],[8.5429718,47.2879789],[8.5429143,47.2880247],[8.5428798,47.2880478],[8.5428204,47.2880851],[8.5427792,47.2880644],[8.5426455,47.2880363],[8.5421886,47.2879806],[8.5420048,47.2879658],[8.5417693,47.2879611],[8.5416614,47.2879698],[8.5413275,47.2880294],[8.5412346,47.2880386],[8.5411223,47.2880345],[8.541009,47.2880209],[8.5408572,47.2879937],[8.5405691,47.2878918],[8.5404786,47.287869],[8.5402732,47.2878168],[8.5402063,47.2877994],[8.539802,47.2877206],[8.5396941,47.2877033],[8.5396387,47.287695],[8.5395501,47.2876837],[8.5394548,47.2876813],[8.5393366,47.2876924],[8.5390712,47.2877541],[8.5389985,47.2877647],[8.538826,47.2877681],[8.5382319,47.2877555],[8.5381112,47.2877618],[8.5380651,47.2877662],[8.5380249,47.2877876],[8.5379968,47.2878201],[8.5378658,47.2878042],[8.5378229,47.2878025],[8.5377649,47.2878033],[8.5376603,47.2878121],[8.5374137,47.2878495],[8.5373694,47.287853],[8.537227,47.2878512],[8.5371891,47.2878476],[8.5369283,47.2877828],[8.5368416,47.2877689],[8.536544,47.2876882],[8.5364174,47.2876577],[8.5362661,47.2876216],[8.5361171,47.2875997],[8.5359791,47.2875803],[8.5358494,47.2875613],[8.5357043,47.2875475],[8.5356278,47.2875586],[8.5355669,47.287579],[8.5354912,47.2876254],[8.5353367,47.2875795],[8.5352934,47.2875627],[8.5345898,47.28729],[8.5344433,47.287248],[8.5342895,47.2872141],[8.5342045,47.2872031],[8.5340942,47.2871947],[8.5340155,47.2871928],[8.5339211,47.2871954],[8.5339165,47.2871381],[8.5339086,47.2870411],[8.5338965,47.286934],[8.5338168,47.2869154],[8.5338014,47.2869119],[8.5336931,47.2868854],[8.5333962,47.2868128],[8.5331387,47.2867627],[8.5330762,47.286751],[8.532997,47.2867361],[8.5326827,47.286677],[8.5326136,47.2866627],[8.5322521,47.2865881],[8.5320997,47.2865611],[8.5318171,47.2865111],[8.5299139,47.2862849],[8.5296159,47.2862486],[8.528811,47.2861406],[8.5286844,47.2861246],[8.5284797,47.2860983],[8.5283374,47.2860964],[8.5280811,47.2861054],[8.5279697,47.2861451],[8.5279077,47.2858495],[8.5278758,47.2856783],[8.5278578,47.2855779],[8.5278284,47.285391],[8.5278263,47.2853166],[8.5278342,47.2852127],[8.5278627,47.2851093],[8.5278994,47.2850168],[8.5279695,47.2849015],[8.5280418,47.2847872],[8.5281804,47.2845911],[8.5282835,47.2844561],[8.528431,47.284282],[8.5285893,47.2841312],[8.5290264,47.2837568],[8.529111,47.283679],[8.529251,47.283541],[8.5294,47.28338],[8.5295829,47.2831497],[8.5296951,47.2829869],[8.5297412,47.2829156],[8.5297804,47.2828496],[8.529915,47.2826188],[8.530044,47.2824396],[8.5301146,47.2823505],[8.5301308,47.2823317],[8.5305063,47.2818962],[8.5306578,47.2816918],[8.5306932,47.2816066],[8.5307167,47.2815166],[8.5307265,47.2813827],[8.5307174,47.2812393],[8.5306132,47.2807212],[8.5306075,47.2806266],[8.5306122,47.2805465],[8.5306339,47.2804701],[8.5307341,47.2802129],[8.5307677,47.280106],[8.5307944,47.2799979],[8.5308193,47.2798554],[8.5308276,47.2797226],[8.530816,47.2796651],[8.5307868,47.2796198],[8.5307458,47.2795916],[8.5306993,47.2795735],[8.5306447,47.2795645],[8.5305851,47.2795657],[8.530524,47.279583],[8.5304681,47.2796202],[8.5304414,47.2796699],[8.5303111,47.2800508],[8.5302176,47.2802857],[8.530168,47.2804035],[8.5300863,47.2805615],[8.5300237,47.2806587],[8.5299569,47.2807468],[8.5298619,47.2808536],[8.5297726,47.2809429],[8.529643,47.2810522],[8.5294371,47.2811965],[8.5291767,47.2813564],[8.5289641,47.2814854],[8.5284652,47.2817863],[8.5283334,47.281857],[8.5282001,47.2819209],[8.5281371,47.2819425],[8.528079,47.2819587],[8.5280354,47.2819669],[8.5279882,47.2819711],[8.5279468,47.2819703],[8.5279058,47.2819646],[8.5278632,47.2819532],[8.5278302,47.2819397],[8.5277939,47.2819204],[8.5277608,47.2818953],[8.5277274,47.2818486],[8.5277178,47.2818209],[8.5277139,47.281792],[8.5277183,47.2817634],[8.5277277,47.2817359],[8.527743,47.2817117],[8.5277646,47.2816847],[8.5278326,47.2816331],[8.5279448,47.2815558],[8.5280497,47.2814769],[8.5283124,47.2812402],[8.5284713,47.2810829],[8.5286195,47.2809228],[8.5287828,47.2807112],[8.5288395,47.2806143],[8.5288597,47.2805605],[8.5288776,47.2804565],[8.5288742,47.2803253],[8.5288501,47.2801174],[8.5288332,47.2800338],[8.5288117,47.2799282],[8.528748,47.2797473],[8.5287198,47.2796435],[8.5287149,47.2795751],[8.5287237,47.2795074],[8.5289437,47.2787547],[8.5289627,47.2786683],[8.5289732,47.278583],[8.5289778,47.2783537],[8.5289868,47.2782741],[8.5290025,47.278222],[8.5290216,47.2781723],[8.5290543,47.278115],[8.529118,47.2780378],[8.5291952,47.2779698],[8.5292589,47.2779233],[8.5295975,47.2777238],[8.5296427,47.2776926],[8.5296672,47.2776692],[8.5297295,47.2775977],[8.5297699,47.2775282],[8.5297951,47.2774575],[8.5298439,47.2773092],[8.5299044,47.2771632],[8.5299918,47.2769514],[8.530024,47.2768584],[8.5300306,47.2768001],[8.5300174,47.2767449],[8.5299945,47.2766882],[8.5298654,47.2764425],[8.5298248,47.2763456],[8.5297865,47.2762364],[8.5297497,47.2760842],[8.5297232,47.2759189],[8.529726,47.2758025],[8.5297332,47.275667],[8.529756,47.2755275],[8.5297956,47.275369],[8.5298174,47.2752902],[8.529816,47.2752401],[8.5297953,47.2751908],[8.5297646,47.2751557],[8.5297089,47.2751225],[8.5296396,47.275099],[8.5295633,47.275089],[8.5294863,47.275099],[8.529417,47.2751256],[8.5293573,47.2751608],[8.5292913,47.2752209],[8.5292122,47.2753135],[8.5290444,47.2755631],[8.52884,47.2758318],[8.5287081,47.2759762],[8.5286024,47.2760807],[8.5285267,47.2761467],[8.5284523,47.2761932],[8.5283556,47.2762326],[8.5282747,47.2762547],[8.5281804,47.2762638],[8.5280798,47.2762573],[8.5279843,47.2762338],[8.5279181,47.2762024],[8.5278653,47.2761644],[8.5278216,47.276122],[8.5277982,47.2760842],[8.5277779,47.2760209],[8.5277688,47.275943],[8.5277668,47.2758641],[8.5277708,47.2757831],[8.527779,47.2756148],[8.5277767,47.27558],[8.5277727,47.2755488],[8.5277623,47.2755199],[8.5277466,47.2754921],[8.527723,47.2754656],[8.5277034,47.27545],[8.5276749,47.2754298],[8.527638,47.2754103],[8.5276017,47.2753938],[8.5275443,47.2753786],[8.5274705,47.2753681],[8.5273865,47.2753659],[8.5272962,47.2753703],[8.527197,47.2753792],[8.5270958,47.2753916],[8.5269365,47.2754217],[8.5267753,47.2754651],[8.5266096,47.2755151],[8.5264012,47.2755879],[8.5261437,47.275688],[8.5260264,47.2757387],[8.5259032,47.2757995],[8.5257896,47.2758639],[8.5256682,47.2759406],[8.5252405,47.2762415],[8.5251548,47.2762958],[8.5250442,47.2763591],[8.5249627,47.2764031],[8.524878,47.2764449],[8.5247343,47.2765051],[8.5246089,47.2765473],[8.5244743,47.2765798],[8.524353,47.2765985],[8.5242164,47.2766175],[8.5239778,47.2766493],[8.5238702,47.2766721],[8.5237601,47.2767112],[8.5236638,47.2767555],[8.523572,47.2768077],[8.5234818,47.2768682],[8.5233864,47.2769391],[8.5233069,47.2770045],[8.5232208,47.2770841],[8.5231565,47.2771467],[8.523099,47.277218],[8.5230541,47.2772853],[8.5230163,47.2773455],[8.5228763,47.2776263],[8.5228468,47.2776843],[8.5228093,47.2777333],[8.5227832,47.2777536],[8.5227571,47.2777709],[8.5227232,47.2777852],[8.522686,47.2777972],[8.5226552,47.2778025],[8.5226232,47.2778047],[8.5225875,47.2778037],[8.5225511,47.2777984],[8.522519,47.2777888],[8.5224925,47.2777762],[8.5224686,47.277761],[8.5224504,47.2777443],[8.5224326,47.277721],[8.5224204,47.2776969],[8.5224142,47.2776696],[8.5224148,47.2776423],[8.5224276,47.27759],[8.5226728,47.2769757],[8.522683,47.2768937],[8.5226781,47.2768158],[8.5226622,47.2767362],[8.5226206,47.2766408],[8.5225945,47.2766035],[8.5225595,47.2765662],[8.5225174,47.2765307],[8.5224584,47.2764872],[8.5223932,47.2764416],[8.5221389,47.2763014],[8.5218721,47.2761669],[8.5217539,47.2761123],[8.521674,47.2760767],[8.521592,47.2760486],[8.5215369,47.2760367],[8.5214234,47.2760149],[8.5213386,47.2760077],[8.5212494,47.2760053],[8.5212027,47.2760047],[8.5211431,47.276007],[8.521062,47.276015],[8.5209892,47.2760262],[8.5209444,47.2760342],[8.5208763,47.2760522],[8.5207005,47.2760986],[8.5204118,47.2761942],[8.520262,47.2762412],[8.5201662,47.2762611],[8.5200777,47.2762727],[8.5199515,47.2762832],[8.5198219,47.2762845],[8.5197262,47.2762746],[8.5196775,47.2762696],[8.519516,47.2762382],[8.5193376,47.2761896],[8.519161,47.276129],[8.5190849,47.2760982],[8.5189757,47.2760479],[8.5188442,47.2759802],[8.5187147,47.2758993],[8.5186346,47.2758424],[8.5185543,47.2757767],[8.5184517,47.2756852],[8.5183949,47.2756257],[8.5183386,47.2755571],[8.5182619,47.2754495],[8.5181913,47.2753187],[8.5180847,47.2751074],[8.5179862,47.2749095],[8.517936,47.2748332],[8.5178969,47.2747862],[8.5178556,47.2747455],[8.5177847,47.274687],[8.517765,47.2746723],[8.5176445,47.2745911],[8.5175648,47.2745522],[8.5174812,47.2745174],[8.5173481,47.2744736],[8.5171724,47.2744197],[8.5168762,47.2743289],[8.5163233,47.2741615],[8.5162239,47.2741382],[8.5161063,47.2741263],[8.5159978,47.2741292],[8.5156389,47.2741591],[8.5155663,47.2741597],[8.5154954,47.2741536],[8.5154127,47.2741379],[8.5153373,47.2741152],[8.5152942,47.2740969],[8.5152336,47.2740648],[8.5151766,47.2740238],[8.5151372,47.2739827],[8.5150961,47.2739255],[8.5150752,47.2738768],[8.5150632,47.2738307],[8.5150621,47.2737086],[8.5150473,47.2736088],[8.5150201,47.2735521],[8.515001,47.2735123],[8.5149262,47.2733983],[8.5146991,47.2731707],[8.5145988,47.2730555],[8.5145169,47.2729304],[8.5144866,47.2728642],[8.5144565,47.2727775],[8.5144365,47.2726984],[8.5142769,47.2714591],[8.5142577,47.2712305],[8.5142653,47.2710481],[8.5143102,47.2707682],[8.5143399,47.2705842],[8.5143781,47.270423],[8.514426,47.2702893],[8.514477,47.2701916],[8.5145358,47.2701246],[8.514614,47.2700589],[8.5149155,47.2698595],[8.515055,47.2697556],[8.5151401,47.2696756],[8.5152018,47.2695908],[8.5152373,47.2695044],[8.5152428,47.2694484],[8.515234,47.2693978],[8.5152078,47.2693486],[8.51507,47.2691807],[8.5148415,47.2689101],[8.5148218,47.2688818],[8.5148066,47.2688454],[8.5148044,47.2688136],[8.5148082,47.2687756],[8.5148221,47.2687441],[8.5148405,47.2687167],[8.5149205,47.2686612],[8.5151621,47.2685639],[8.5153088,47.2684882],[8.5153791,47.2684273],[8.5154403,47.2683566],[8.5156233,47.2679822],[8.515684,47.2678521],[8.5157495,47.2676684],[8.515752,47.2676183],[8.5157492,47.2675562],[8.5157348,47.2675046],[8.5156974,47.2674324],[8.5156649,47.2673935],[8.5156082,47.2673401],[8.5155601,47.2673045],[8.5154872,47.2672621],[8.515342,47.2672068],[8.5151885,47.2671701],[8.5149985,47.2671302],[8.5148592,47.2671011],[8.5146766,47.2670532],[8.51461,47.2670256],[8.5145468,47.2669942],[8.514502,47.2669586],[8.5144603,47.2669156],[8.5144344,47.2668756],[8.5144091,47.2668265],[8.5144014,47.2667838],[8.5143996,47.2667333],[8.5144252,47.266609],[8.5144638,47.2665001],[8.5145094,47.2663931],[8.5145973,47.2662344],[8.5148189,47.2659002],[8.5149201,47.2657761],[8.5150411,47.2656496],[8.5152016,47.2655111],[8.5153927,47.2653606],[8.515566,47.2652241],[8.5157301,47.2650833],[8.5158778,47.2649518],[8.5160674,47.2647506],[8.5162431,47.2645405],[8.516379,47.2643531],[8.516696,47.2638484],[8.5169443,47.2634334],[8.5170182,47.2633092],[8.5171339,47.2631071],[8.5172644,47.2628988],[8.5174885,47.2625627],[8.5175697,47.2624556],[8.5177278,47.2622686],[8.5179314,47.2620645],[8.518143,47.2618635],[8.5184757,47.2615518],[8.5186772,47.2613693],[8.5188804,47.2612057],[8.5193738,47.2608253],[8.5198849,47.2604634],[8.5201936,47.2602405],[8.5205136,47.2600257],[8.5210258,47.2597052],[8.521385,47.2594918],[8.5218963,47.2591801],[8.5220603,47.2590799],[8.5221642,47.2590163],[8.5241397,47.2578108],[8.5248762,47.257327],[8.5257371,47.2567795],[8.5260098,47.2565822],[8.5261656,47.2564173],[8.5263022,47.2562326],[8.5265694,47.2558098],[8.5266654,47.2556371],[8.5267352,47.255456],[8.526765,47.2553251],[8.5267793,47.255106],[8.5267536,47.2541036],[8.5267448,47.253627],[8.5267559,47.2534536],[8.5267838,47.2532838],[8.5268128,47.2531865],[8.5268503,47.2530905],[8.5269269,47.2529446],[8.5270123,47.2528109],[8.527417,47.2522082],[8.527985,47.2513996],[8.5281357,47.2511748],[8.5281868,47.2511069],[8.5282175,47.2510661],[8.5285175,47.2506672],[8.5287859,47.2502359],[8.5289332,47.2500179],[8.5290746,47.2498221],[8.5291382,47.2497381],[8.5292732,47.2495666],[8.5294871,47.2493358],[8.5299482,47.2489427],[8.5300761,47.2488511],[8.5301245,47.2488073],[8.5302892,47.2486648],[8.531169,47.247922],[8.531307,47.2478123],[8.5314129,47.2477313],[8.5314683,47.2476936],[8.5315055,47.2476632],[8.5315461,47.2476274],[8.5316715,47.2475026],[8.5317295,47.247442],[8.5318295,47.2473313],[8.5319584,47.2471489],[8.5321052,47.2468822],[8.532316,47.2464912],[8.5323647,47.2464033],[8.5325459,47.2460695],[8.5329058,47.2453952],[8.5329994,47.2452293],[8.5330446,47.2451584],[8.5331194,47.2450462],[8.5332393,47.2448927],[8.5334673,47.2446186],[8.5334836,47.244598],[8.5336092,47.2444255],[8.5336717,47.2443231],[8.5337197,47.2442214],[8.5337396,47.2441647],[8.5337551,47.2440998],[8.5337659,47.2440173],[8.5337701,47.2439325],[8.5337475,47.2437734],[8.5337285,47.2437202],[8.5336895,47.2436218],[8.5336387,47.2435209],[8.533581,47.2434269],[8.5334095,47.2431582],[8.5332647,47.2429281],[8.5331469,47.2427715],[8.5329313,47.24253],[8.5328669,47.2424644],[8.5328139,47.2424104],[8.5323308,47.2419084],[8.5321853,47.2417624],[8.5320219,47.2415686],[8.5319167,47.2413969],[8.5318336,47.2412496],[8.5317682,47.2410627],[8.531754,47.2410218],[8.53171,47.2407921],[8.5316949,47.2406616],[8.5316049,47.2403164],[8.5314181,47.2397281],[8.5312046,47.239196],[8.5311079,47.2389745],[8.5307717,47.2382006],[8.5302483,47.2369852],[8.5298472,47.2360567],[8.5296612,47.2356278],[8.5296214,47.2355379],[8.5295481,47.2353959],[8.5294578,47.2352567],[8.5293743,47.2351464],[8.5293097,47.2350704],[8.5292632,47.2350197],[8.5291365,47.2348894],[8.5278377,47.2336552],[8.5274626,47.2332964],[8.5272032,47.2330432],[8.5270684,47.2328951],[8.5269489,47.2327506],[8.5268491,47.2326137],[8.5267669,47.2324901],[8.5266604,47.2323061],[8.5265231,47.2320444],[8.5264459,47.2318858],[8.5263924,47.2317478],[8.5263046,47.2317531],[8.5257692,47.231648],[8.5256276,47.2316237],[8.5255329,47.2316074],[8.5253822,47.2315792],[8.525296,47.2315709],[8.5252508,47.2315749],[8.5249774,47.2316177],[8.5248933,47.2316085],[8.5248044,47.2315907],[8.5247049,47.2315596],[8.5243756,47.2314398],[8.5240389,47.2312901],[8.5235781,47.2310734],[8.5229672,47.2307435],[8.5228332,47.2306606],[8.5227966,47.2306405],[8.5226388,47.2307237],[8.5224928,47.2307898],[8.5223517,47.2308395],[8.5222009,47.2308833],[8.5220251,47.2309222],[8.5218396,47.2309497],[8.521658,47.2309677],[8.5215192,47.2309743],[8.5211765,47.2309833],[8.5208161,47.2309888],[8.5202263,47.2309972],[8.5195434,47.2310044],[8.5191385,47.231005]]}}