{"type":"Feature","properties":{"key":"forch"},"geometry":{"type":"LineString","coordinates":[[8.6231837,47.3218251],[8.6233065,47.3218143],[8.6250858,47.3215616],[8.6257547,47.3214258],[8.6260417,47.3213526],[8.6263024,47.3212586],[8.6264391,47.3211995],[8.626525,47.3212065],[8.6266432,47.3211999],[8.6270174,47.3211605],[8.627151,47.3211521],[8.6272991,47.3211495],[8.6273667,47.3211498],[8.6274087,47.3211555],[8.6276014,47.3211873],[8.6276723,47.3212109],[8.6278233,47.3212711],[8.6279648,47.3213308],[8.6280604,47.3213525],[8.6281687,47.3213547],[8.6283315,47.3213428],[8.6285073,47.3213394],[8.628676,47.3213533],[8.6288308,47.321379],[8.6290018,47.3214138],[8.62912,47.3214541],[8.6293106,47.3215279],[8.6293531,47.3215439],[8.6294958,47.3215843],[8.6295608,47.321597],[8.6296284,47.321598],[8.6297315,47.3215737],[8.630002,47.3214549],[8.6303216,47.3213712],[8.6304087,47.3213558],[8.6304128,47.3212948],[8.6304093,47.3212469],[8.6304087,47.3212352],[8.6304101,47.3211711],[8.6304277,47.3210963],[8.6304453,47.3210549],[8.6304781,47.3210067],[8.6305476,47.3209566],[8.6306569,47.3209212],[8.6308587,47.3208651],[8.6312017,47.3207938],[8.6313783,47.320756],[8.6315192,47.3207128],[8.6316575,47.3206573],[8.6317981,47.320598],[8.6319269,47.320546],[8.6320648,47.3205026],[8.6324701,47.3203842],[8.632719,47.3203177],[8.6329308,47.320262],[8.6331199,47.3201995],[8.6333708,47.3201011],[8.6335185,47.3200467],[8.6338208,47.3199703],[8.6342191,47.3198711],[8.634518,47.3198173],[8.6346031,47.319796],[8.634645,47.3197792],[8.6346774,47.319762],[8.6347142,47.3197334],[8.6349918,47.3198851],[8.6352671,47.3200232],[8.6355442,47.3201347],[8.6356255,47.3201647],[8.6363943,47.3204457],[8.636484,47.3204795],[8.6372621,47.3207645],[8.6373852,47.3208112],[8.6375669,47.3208619],[8.6377438,47.3208854],[8.6379508,47.320883],[8.6380934,47.3208619],[8.6382585,47.3208262],[8.6383626,47.3208019],[8.6385649,47.3207642],[8.6387287,47.3207524],[8.6389052,47.3207547],[8.6392008,47.3207956],[8.6395224,47.3208492],[8.6397312,47.3209089],[8.6401158,47.3210331],[8.6402288,47.3208867],[8.6403003,47.3207598],[8.6403023,47.3205417],[8.6402642,47.3203383],[8.6400995,47.319826],[8.640061,47.3195969],[8.6401075,47.3192139],[8.6401972,47.3187641],[8.6402885,47.318455],[8.6402966,47.3183755],[8.6403307,47.3182958],[8.6403859,47.3182039],[8.6407427,47.3177627],[8.6412696,47.3170832],[8.641368,47.3169105],[8.6411107,47.3154653],[8.6411259,47.3153562],[8.641198,47.3152182],[8.6413208,47.3151057],[8.6419341,47.3146397],[8.641974,47.3146101],[8.6416307,47.3142948],[8.6401687,47.3129839],[8.6397855,47.3126182],[8.6396213,47.312434],[8.6393491,47.3120641],[8.6392161,47.3119071],[8.6390338,47.3117247],[8.6386743,47.3113961],[8.6384755,47.3112191],[8.6382937,47.3110382],[8.6381957,47.3109189],[8.6381187,47.3107993],[8.6380713,47.310698],[8.6380312,47.3105532],[8.6380148,47.310368],[8.6380419,47.3101854],[8.6384118,47.308353],[8.6386318,47.3073024],[8.6388195,47.3064137],[8.6388962,47.3060474],[8.6389176,47.305909],[8.6389245,47.3058278],[8.6389278,47.3057498],[8.6389242,47.3056863],[8.6389083,47.3055883],[8.6388987,47.3055518],[8.6388663,47.3054618],[8.638825,47.3053765],[8.6387458,47.3052656],[8.638723,47.3052399],[8.6385606,47.3050693],[8.6385188,47.3050215],[8.6384186,47.3048792],[8.6383013,47.3047491],[8.6380994,47.3045443],[8.6378788,47.3043407],[8.6375893,47.3040735],[8.6373672,47.3038727],[8.6371385,47.3036501],[8.6368905,47.3033543],[8.636686,47.3030551],[8.6364987,47.3026634],[8.6364813,47.3026186],[8.6363179,47.3021885],[8.6361302,47.3016715],[8.6360799,47.3015487],[8.6359923,47.3013723],[8.635956,47.3013117],[8.6359144,47.3012547],[8.6358461,47.3011642],[8.6357111,47.3010306],[8.6355787,47.3009202],[8.6352919,47.3007296],[8.6346774,47.3003308],[8.6344362,47.3001607],[8.6342882,47.3000387],[8.6341478,47.2999099],[8.6340122,47.2997697],[8.6338889,47.2996279],[8.6337884,47.299488],[8.6337452,47.2994057],[8.6336962,47.2992786],[8.6336429,47.299011],[8.633602,47.2988588],[8.6335763,47.2987824],[8.6335341,47.2986836],[8.6333462,47.2983415],[8.6331453,47.2980069],[8.6330929,47.2979354],[8.6330356,47.2978779],[8.6329578,47.2978143],[8.6328048,47.2977117],[8.632735,47.297653],[8.632709,47.2976246],[8.632678,47.2975787],[8.6326636,47.297546],[8.6326569,47.2975123],[8.6326563,47.2974797],[8.6326593,47.2974343],[8.6326998,47.2973189],[8.6328256,47.2970005],[8.6328623,47.2969054],[8.632892,47.2968056],[8.6329143,47.296703],[8.6329133,47.2966004],[8.6328933,47.2964976],[8.6328523,47.2964011],[8.6327844,47.2962866],[8.6326829,47.2961308],[8.6326674,47.2961054],[8.6325539,47.2959314],[8.6324957,47.2958526],[8.632434,47.2957889],[8.6322971,47.2956703],[8.6319746,47.2954348],[8.6318842,47.2953528],[8.6318515,47.2953119],[8.6318108,47.2952568],[8.6317914,47.2952101],[8.6317766,47.2951582],[8.6317629,47.29499],[8.6317564,47.2949254],[8.6317395,47.294876],[8.6317004,47.2948265],[8.6316493,47.2947842],[8.6315104,47.2947067],[8.6313574,47.2946289],[8.631171,47.294534],[8.6310791,47.2944668],[8.6310315,47.2944128],[8.6309929,47.2943477],[8.6309781,47.2943113],[8.6309694,47.2942743],[8.6309713,47.2942359],[8.6309807,47.2941954],[8.6310073,47.2941165],[8.6310411,47.2941175],[8.6310617,47.2941182],[8.6311487,47.2941208],[8.6313878,47.2941285],[8.6316793,47.2940754],[8.6319566,47.2939882],[8.6326324,47.2937069],[8.6335023,47.2933448],[8.6345254,47.2930053],[8.6349508,47.2928722],[8.6364168,47.2924615],[8.6368724,47.2923531],[8.6379118,47.2921057],[8.6399862,47.291632],[8.6410524,47.2914088],[8.641916,47.2912019],[8.6447461,47.2905676],[8.644891,47.2905324],[8.6450064,47.2904994],[8.6451565,47.2904486],[8.6472077,47.2895642],[8.6473549,47.2895061],[8.6475005,47.2894689],[8.6476383,47.2894499],[8.6477699,47.2894413],[8.647899,47.2894487],[8.6480358,47.2894687],[8.6481741,47.2894991],[8.648294,47.2895128],[8.6483709,47.2895204],[8.6484864,47.2895249],[8.6495573,47.2895518],[8.6497164,47.2895548],[8.6497762,47.2895559],[8.649875,47.2895428],[8.6499336,47.289525],[8.6499865,47.2895048],[8.6500301,47.289478],[8.6500726,47.2894505],[8.650185,47.2893617],[8.6504015,47.2891504],[8.6506044,47.2889595],[8.6506889,47.2888918],[8.6508039,47.2888324],[8.6508954,47.2887991],[8.6523805,47.2883197],[8.6524885,47.2882858],[8.6526005,47.2882574],[8.6528403,47.2882173],[8.6531919,47.2881796],[8.6532853,47.2881674],[8.6534002,47.2881544],[8.6534925,47.2881386],[8.6535287,47.2881306],[8.6536071,47.2881038],[8.6536726,47.2880742],[8.6537219,47.2880473],[8.6540206,47.287882],[8.6544399,47.2876591],[8.6551023,47.2873068],[8.6554341,47.2870678],[8.6555853,47.2869563],[8.6557576,47.2868361],[8.6560407,47.2866675],[8.6566813,47.2863424],[8.6569764,47.2861767],[8.6571234,47.2861189],[8.6572966,47.2860972],[8.6574318,47.2861055],[8.6580267,47.286221],[8.6582994,47.2862593],[8.6587811,47.2862789],[8.6592292,47.2862818],[8.6593429,47.28628],[8.6594625,47.2862736],[8.6595969,47.2862576],[8.6597741,47.286222],[8.6599043,47.2861887],[8.6600063,47.2861679],[8.6600983,47.2861569],[8.6601908,47.2861463],[8.6602903,47.286142],[8.6610792,47.2861283],[8.6613087,47.2861186],[8.6614656,47.2860923],[8.662421,47.2858545],[8.6630941,47.2857055],[8.6636707,47.2855852],[8.6638656,47.2855446],[8.6639759,47.2855217],[8.6641487,47.2854954],[8.6648965,47.2854424],[8.6652033,47.2854388],[8.6655055,47.2854535],[8.6656662,47.2854712],[8.6658058,47.2854904],[8.6661429,47.2855575],[8.6666089,47.2856213],[8.6668564,47.2856403],[8.6670035,47.2856458],[8.6671445,47.285645],[8.6672984,47.2856282],[8.6674075,47.2856132],[8.6675417,47.2855806],[8.668072,47.2854423],[8.6681518,47.2854273],[8.668854,47.2853096],[8.6689903,47.2852731],[8.6691028,47.2852377],[8.6692383,47.2851923],[8.6693954,47.2851511],[8.6694968,47.2851329],[8.6700506,47.2850337],[8.6701836,47.28501],[8.6705327,47.2849471],[8.6711163,47.2848539],[8.6728051,47.284559],[8.6730041,47.2845307],[8.6731093,47.2845189],[8.6732092,47.2845143],[8.6735186,47.2845081],[8.673828,47.2845165],[8.6740143,47.2845233],[8.6741723,47.2845361],[8.6743359,47.2845664],[8.6744619,47.284601],[8.6749681,47.2847809],[8.6750698,47.2848136],[8.6751622,47.2848388],[8.6752775,47.2848646],[8.6753929,47.284882],[8.6760239,47.2849577],[8.6761302,47.2849675],[8.6766887,47.2850436],[8.6780049,47.2852954],[8.6797214,47.2856437],[8.6799438,47.285688],[8.6801153,47.2857276],[8.6802701,47.2857707],[8.680415,47.2858191],[8.6805353,47.2858699],[8.6806708,47.2859391],[8.6807826,47.2860066],[8.6808958,47.2860896],[8.6810095,47.2861909],[8.6811167,47.2863043],[8.6812376,47.2864413],[8.6812507,47.2864561],[8.6813913,47.2866096],[8.6815174,47.2867267],[8.6815993,47.2867901],[8.6817315,47.2868813],[8.6818506,47.2869388],[8.6820074,47.2870015],[8.6823091,47.2870722],[8.6824384,47.287096],[8.6824891,47.2869865],[8.6825548,47.2868254],[8.6826686,47.2865295],[8.6827059,47.2864324],[8.682903,47.2859405],[8.6831092,47.285392],[8.6831248,47.2853512],[8.6833167,47.2848498],[8.6835851,47.2841517]]}}