{"type":"Feature","properties":{"key":"reusstal"},"geometry":{"type":"LineString","coordinates":[[8.4352782,47.1897595],[8.4356219,47.1899228],[8.4375557,47.1911482],[8.4385519,47.1916291],[8.4392738,47.191968],[8.4400704,47.1923523],[8.4408881,47.1927013],[8.4413664,47.1929248],[8.4419594,47.1931593],[8.4432422,47.1936642],[8.4433068,47.1936987],[8.4431711,47.193781],[8.4429555,47.1939118],[8.4428951,47.193945],[8.4425516,47.1941335],[8.4416329,47.1946159],[8.4411319,47.1948775],[8.4405256,47.1951955],[8.4400949,47.1953862],[8.4398179,47.1954736],[8.4393426,47.1955732],[8.4388744,47.1956181],[8.4375716,47.195725],[8.4367237,47.1958151],[8.4363697,47.195861],[8.4361751,47.1958937],[8.4358649,47.1959654],[8.4356461,47.1960316],[8.4355807,47.1960486],[8.4354616,47.1960856],[8.4353564,47.1961184],[8.4348203,47.19632],[8.4345165,47.1964372],[8.4342571,47.1965409],[8.4337961,47.1967252],[8.4328858,47.1970838],[8.4321495,47.1973837],[8.4307172,47.1979422],[8.4306028,47.197983],[8.4304573,47.1980319],[8.4303185,47.1980679],[8.4301529,47.198112],[8.4301594,47.1981569],[8.4301692,47.1982249],[8.4303035,47.1989786],[8.4303878,47.1994668],[8.4305254,47.2001802],[8.4305535,47.2003162],[8.4306163,47.2006017],[8.430652,47.2007452],[8.4307048,47.200906],[8.4308101,47.2011044],[8.430925,47.2012718],[8.4311323,47.2015959],[8.4313815,47.2019855],[8.4314709,47.2021214],[8.4320732,47.203033],[8.4305134,47.2035153],[8.4271207,47.204862],[8.4267697,47.2050052],[8.4265442,47.2050951],[8.4262633,47.2052438],[8.4259783,47.2055076],[8.4253172,47.2063488],[8.424584,47.2072869],[8.4242253,47.2076008],[8.4237282,47.2079764],[8.4231665,47.2084175],[8.422611,47.2087555],[8.4221786,47.209006],[8.4216492,47.2093618],[8.4212914,47.2096881],[8.4210648,47.2099774],[8.4211658,47.2108739],[8.4212201,47.2111501],[8.4213271,47.2115186],[8.4214103,47.2118752],[8.4214172,47.2121746],[8.421396,47.2122864],[8.4213827,47.2124115],[8.4213507,47.2125392],[8.4213188,47.2127015],[8.4213055,47.2128213],[8.4213347,47.212957],[8.4214013,47.2130981],[8.4219055,47.2138459],[8.4220785,47.2140895],[8.4221661,47.2141968],[8.4222594,47.214265],[8.4222614,47.2143294],[8.4221497,47.2143637],[8.4220531,47.2143723],[8.4217407,47.2143743],[8.4211249,47.2143748],[8.4207385,47.2143851],[8.4201138,47.2144221],[8.419873,47.2144413],[8.4195997,47.2144786],[8.419163,47.2145552],[8.4190782,47.2145623],[8.4188613,47.2145736],[8.4185365,47.2145579],[8.4184351,47.21457],[8.4183629,47.2146047],[8.4181918,47.2149377],[8.4179318,47.2154801],[8.4177351,47.2158766],[8.4175167,47.2163296],[8.4173687,47.2166373],[8.4172926,47.2167877],[8.4170311,47.2172524],[8.4168525,47.2174927],[8.416617,47.2176503],[8.4163347,47.2177983],[8.416127,47.2178852],[8.4158455,47.2179742],[8.4155433,47.2180452],[8.4147048,47.2182511],[8.4138935,47.2184382],[8.4137788,47.2184662],[8.4136721,47.2184978],[8.4135396,47.2185461],[8.4137202,47.2187938],[8.4139423,47.2191125],[8.4139923,47.2192006],[8.4140259,47.2192762],[8.4140476,47.2193411],[8.4140622,47.2194022],[8.4140715,47.219474],[8.4140714,47.2195465],[8.4140661,47.2196154],[8.4140542,47.219709],[8.4140371,47.2197937],[8.4140073,47.2198918],[8.4139194,47.2201246],[8.4138902,47.2202254],[8.4138743,47.2202992],[8.4138705,47.220362],[8.4138801,47.2204741],[8.414014,47.2208741],[8.4140271,47.220933],[8.4140337,47.220989],[8.4140359,47.2210373],[8.4140323,47.2210832],[8.4140206,47.2211351],[8.413978,47.2212682],[8.4138874,47.2215159],[8.4138708,47.221582],[8.4138611,47.2216341],[8.4138565,47.2216956],[8.4138588,47.2217544],[8.4138703,47.221807],[8.4138884,47.2218625],[8.4139191,47.2219249],[8.4139563,47.2219835],[8.4142195,47.2223268],[8.4144816,47.2226216],[8.4146991,47.2228935],[8.4147484,47.2232706],[8.4147539,47.2233697],[8.4147739,47.2237235],[8.4147587,47.2241961],[8.4148188,47.2249033],[8.415192,47.229296],[8.4153443,47.2302159],[8.41555,47.2307027],[8.4157712,47.2310751],[8.4161228,47.2316404],[8.4163714,47.2321887],[8.4165449,47.2325706],[8.4166446,47.232972],[8.4167012,47.2333805],[8.4167342,47.2336446],[8.416802,47.2337192],[8.4168994,47.2337721],[8.4170103,47.2337986],[8.4171239,47.2338239],[8.4172004,47.2338401],[8.4174887,47.233872],[8.4177653,47.2338933],[8.4196013,47.2340073],[8.420065,47.2340287],[8.4203931,47.2340285],[8.4208202,47.234029],[8.4215405,47.2340519],[8.4216679,47.2340538],[8.4219912,47.2340621],[8.4224777,47.2340781],[8.4230531,47.23411],[8.4233098,47.2341353],[8.4235357,47.234163],[8.4236797,47.2341979],[8.4238626,47.2342597],[8.4240152,47.2343455],[8.42417,47.2343981],[8.4247983,47.2345514],[8.4249083,47.2345915],[8.4250093,47.234639],[8.4251549,47.2347304],[8.4252091,47.234751],[8.4252729,47.2347692],[8.4253464,47.2347853],[8.4255111,47.2348044],[8.4256271,47.2348196],[8.4256996,47.2348277],[8.4257657,47.234834],[8.4258305,47.2348336],[8.4259012,47.2348255],[8.425969,47.2348095],[8.4261057,47.2347686],[8.4263414,47.2346864],[8.4264677,47.2346525],[8.4265455,47.2346359],[8.4266178,47.2346228],[8.4267832,47.2346141],[8.42682,47.2346135],[8.4269432,47.2346165],[8.4270427,47.2346254],[8.4271463,47.2346386],[8.4274009,47.2346759],[8.4276556,47.2347337],[8.427681,47.2347419],[8.4279046,47.2348141],[8.428638,47.235056],[8.428894,47.2351163],[8.4291412,47.2351577],[8.4296633,47.2352388],[8.429716,47.2352477],[8.430167,47.2353236],[8.4308465,47.235424],[8.431461,47.2355226],[8.431528,47.2355345],[8.4316051,47.2355514],[8.4316499,47.2355599],[8.4323427,47.2357423],[8.4326045,47.2358054],[8.4328726,47.2358522],[8.4335872,47.2359305],[8.4338532,47.2359606],[8.4339761,47.235982],[8.4340428,47.236001],[8.434091,47.2360206],[8.4341656,47.2360582],[8.4343106,47.2361538],[8.4344217,47.2362253],[8.4344517,47.2362563],[8.4344725,47.2362826],[8.4343246,47.236328],[8.4342047,47.2363683],[8.4341031,47.2364073],[8.433982,47.2364596],[8.4338798,47.2365049],[8.4337775,47.2365567],[8.4336556,47.2366256],[8.433544,47.2366938],[8.4334996,47.2367239],[8.432995,47.2371265],[8.4322536,47.2377273],[8.4320395,47.2378997],[8.4318393,47.2380753],[8.4316087,47.2383016],[8.4314278,47.2384789],[8.4312729,47.2386262],[8.4311285,47.2387527],[8.4309365,47.2389185],[8.4295545,47.2399916],[8.4290154,47.2404087],[8.4284785,47.2407797],[8.4279516,47.2410962],[8.4275342,47.2413176],[8.4268825,47.2416563],[8.4263999,47.2419251],[8.4258847,47.2422481],[8.4254489,47.2425508],[8.4249901,47.2429011],[8.424025,47.2436456],[8.423824,47.2437997],[8.4237237,47.2438728],[8.4236115,47.2439533],[8.4235027,47.244022],[8.423437,47.2440608],[8.4233358,47.2441157],[8.4232516,47.2441608],[8.4231396,47.2442145],[8.422999,47.2442758],[8.4228681,47.2443268],[8.4227253,47.2443781],[8.4226078,47.2444154],[8.4225305,47.2444387],[8.4224578,47.2444576],[8.4223607,47.2444824],[8.4221726,47.2445225],[8.422043,47.2445523],[8.4218879,47.2445893],[8.4217278,47.2446308],[8.4216584,47.2446509],[8.4215664,47.2446803],[8.4214541,47.2447213],[8.4213327,47.2447695],[8.421241,47.244811],[8.421179,47.2448415],[8.4211123,47.2448768],[8.42102,47.2449309],[8.4209355,47.2449852],[8.4207704,47.245101],[8.4206467,47.2452018],[8.4205985,47.2452483],[8.420563,47.2452844],[8.4205077,47.2453444],[8.4204739,47.2453845],[8.4204341,47.2454355],[8.4203592,47.2455388],[8.4202891,47.2456509],[8.4200077,47.246161],[8.4197516,47.2465816],[8.4192885,47.2472173],[8.4190749,47.2475105],[8.4177734,47.2489819],[8.4166297,47.2503537],[8.4164159,47.2506935],[8.41634,47.2508142],[8.4157741,47.2517066],[8.4154861,47.2521705],[8.4145766,47.2535029],[8.4144772,47.2536503],[8.4132454,47.2550479],[8.4122772,47.2567293],[8.4121703,47.2569296],[8.4121269,47.2569916],[8.4118076,47.2574112],[8.4114672,47.2577852],[8.4108624,47.2582638],[8.4104209,47.2586726],[8.4101591,47.2589977],[8.4100926,47.2591004],[8.4094756,47.2601307],[8.409432,47.2602173],[8.4092829,47.2604703],[8.408858,47.2610619],[8.4074033,47.2627051],[8.4070466,47.2630994],[8.4067476,47.2634724],[8.4065476,47.2637826],[8.4064751,47.2639197],[8.4064643,47.2640132],[8.4064918,47.2640999],[8.4065459,47.2641982],[8.4070244,47.2640816],[8.407265,47.264032],[8.4073203,47.2640194],[8.4073779,47.2640135],[8.4074361,47.2640143],[8.4074933,47.2640219],[8.4075504,47.2640368],[8.4076025,47.2640585],[8.4076337,47.2640829],[8.4076568,47.2641226],[8.4076651,47.2641638],[8.4076687,47.264194],[8.4076618,47.2642293],[8.4076506,47.2642708],[8.4076019,47.264336],[8.407517,47.264419],[8.4074678,47.2644817],[8.4074091,47.2645545],[8.407353,47.2646404],[8.4070479,47.2651726],[8.406862,47.2654995],[8.406575,47.265999],[8.4060106,47.2669875],[8.4057027,47.2675266],[8.4052479,47.2683113],[8.405143,47.268498],[8.404976,47.2687833],[8.4049031,47.2689193],[8.40488,47.2689624],[8.4048389,47.2690372],[8.4047723,47.2691672],[8.4047286,47.2692913],[8.4046869,47.2693976],[8.404619,47.2696474],[8.4045391,47.2699576],[8.4044935,47.2700626],[8.404429,47.2701881],[8.4043085,47.2703878],[8.4042122,47.2705771],[8.4041959,47.270609],[8.4041708,47.2706876],[8.4041645,47.2707073],[8.4041375,47.2708349],[8.4041195,47.2709553],[8.4041193,47.2710809],[8.4041177,47.2712326],[8.4041248,47.2714416],[8.4041452,47.2715639],[8.4041556,47.2717285],[8.4041638,47.2718942],[8.404193,47.2720918],[8.40426,47.272289],[8.4043085,47.2723864],[8.4043774,47.2724921],[8.4045357,47.2727036],[8.4047681,47.2729792],[8.4050208,47.2732367],[8.4051098,47.2733315],[8.4051742,47.273446],[8.4052079,47.2735282],[8.4052275,47.273637],[8.405231,47.2737219],[8.4052307,47.2738036],[8.4052306,47.2738422],[8.4052846,47.2738473],[8.4053335,47.2738636],[8.4053723,47.2738896],[8.405397,47.2739226],[8.405405,47.2739565],[8.405398,47.2739906],[8.4053766,47.2740217],[8.4053426,47.2740472],[8.4052991,47.2740648],[8.4052499,47.2740729],[8.4052478,47.2741009],[8.4052454,47.2741326],[8.405236,47.2742579],[8.4052428,47.275216],[8.4053254,47.2759969],[8.4053393,47.2761344],[8.4053455,47.2763291],[8.4053471,47.2764824],[8.405344,47.2766163],[8.4053363,47.2767577],[8.4053161,47.2770026],[8.4052888,47.2772153],[8.4052194,47.2777238],[8.4052119,47.2777852],[8.4051931,47.2779397],[8.4051799,47.2780473],[8.4051653,47.2781505],[8.4051606,47.2782912],[8.405169,47.2783677],[8.4051869,47.2784648],[8.4052217,47.2785526],[8.4052631,47.2786343],[8.4053222,47.2787231],[8.40537,47.2787902],[8.4053757,47.2788122],[8.4053719,47.2788305],[8.4053554,47.2788496],[8.4053271,47.2788736],[8.4052191,47.278945],[8.4049693,47.2791264],[8.4048614,47.2792274],[8.4047503,47.2793457],[8.4046367,47.2794954],[8.4045412,47.2796429],[8.404518,47.2796961],[8.4044536,47.279844],[8.4043746,47.2800183],[8.4043592,47.2800643],[8.4043408,47.2801314],[8.4043347,47.2801633],[8.4043314,47.2801889],[8.4043042,47.2803784],[8.4042585,47.2805564],[8.4042306,47.2806651],[8.4042104,47.2807441],[8.4041403,47.2810174],[8.4041225,47.2810908],[8.4040932,47.2812112],[8.4040866,47.2812368],[8.4040721,47.2812921],[8.4040472,47.2813876],[8.4040194,47.2814757],[8.4039829,47.2815912],[8.4039512,47.2816773],[8.4039342,47.2817216],[8.4038728,47.2818816],[8.4037773,47.2820567],[8.4037193,47.2821263],[8.403605,47.2822724],[8.4035552,47.2823522],[8.4034724,47.2825581],[8.4034355,47.2826498],[8.4033819,47.2827831],[8.4033394,47.2828659],[8.4033191,47.2828922],[8.4032558,47.2829662],[8.4031615,47.2830686],[8.4027045,47.2834316],[8.4026543,47.2834695],[8.4025761,47.2835339],[8.4024939,47.2836107],[8.4024458,47.2836605],[8.4023842,47.2837393],[8.4023598,47.283771],[8.4022785,47.2838988],[8.4020627,47.284284],[8.4017642,47.2848056],[8.4016735,47.2849626],[8.4013645,47.2854974],[8.4011068,47.2859435],[8.4009428,47.2862651],[8.4007393,47.286783],[8.4007155,47.2870318],[8.40071,47.2870786],[8.4006679,47.2873284],[8.4006077,47.2877149],[8.400593,47.2878157],[8.400573,47.2879286],[8.4004802,47.2882824],[8.4003972,47.288545],[8.4002781,47.2887735],[8.4001762,47.2889628],[8.4001391,47.2890279],[8.3994356,47.2901844],[8.3991558,47.2906491],[8.3990618,47.2908312],[8.3989901,47.2910009],[8.3989116,47.2911967],[8.3987526,47.2917026],[8.3986038,47.2922401],[8.3985395,47.2924925],[8.3984903,47.2927256],[8.3984638,47.2928373],[8.3984307,47.2929187],[8.3984152,47.2929549],[8.3983411,47.293092],[8.3983,47.2931455],[8.3982407,47.2932244],[8.3980864,47.2933717],[8.3979522,47.2934964],[8.3978901,47.2935669],[8.3978505,47.2936202],[8.3977647,47.2937716],[8.3977367,47.2938722],[8.3977129,47.2939909],[8.3976825,47.2941111],[8.3976332,47.2942193],[8.3975405,47.294386],[8.3973593,47.2945877],[8.3971091,47.2948],[8.3969202,47.2949229],[8.3968453,47.2949604],[8.3963979,47.2951889],[8.3962289,47.2952968],[8.3960718,47.2954307],[8.3958773,47.295663],[8.3958535,47.2956919],[8.3956991,47.295879],[8.3955905,47.2959992],[8.3955385,47.2960511],[8.395452,47.2961424],[8.3953748,47.2962197],[8.395291,47.2963007],[8.3952165,47.2963764],[8.3951478,47.2964332],[8.3951134,47.2964589],[8.3950693,47.2964885],[8.3950098,47.2965254],[8.3949293,47.2965641],[8.3948745,47.2965869],[8.394729,47.2966412],[8.394651,47.296675],[8.3945804,47.2967118],[8.3945282,47.2967442],[8.3944847,47.2967783],[8.394442,47.296821],[8.3944068,47.296863],[8.3943679,47.2969178],[8.3943386,47.2969755],[8.3943167,47.2970283],[8.3942986,47.2970942],[8.3942737,47.2972116],[8.3942305,47.2975035],[8.3942183,47.2975852],[8.3942152,47.297613],[8.3941993,47.2977511],[8.3941448,47.2982192],[8.3940467,47.2987533],[8.3939674,47.2990849],[8.3939352,47.2992193],[8.3938682,47.2994451],[8.3938536,47.2994966],[8.3938447,47.299543],[8.393831,47.2996191],[8.3938063,47.2997457],[8.3937917,47.2998199],[8.3937712,47.299925],[8.3937309,47.300131],[8.3937076,47.3002502],[8.3936848,47.300367],[8.393672,47.3004252],[8.3936359,47.3005863],[8.3936086,47.3007362],[8.3935849,47.3008438],[8.3935339,47.3009727],[8.393488,47.301104],[8.3933742,47.3013813],[8.3932401,47.3016182],[8.3931337,47.301781],[8.393022,47.3019447],[8.3929125,47.3020983],[8.3928696,47.3021561],[8.3928489,47.3021852],[8.3928717,47.3021954],[8.3928912,47.3022085],[8.3929066,47.3022238],[8.3929174,47.3022409],[8.3929231,47.302259],[8.3929234,47.3022776],[8.3929185,47.3022958],[8.3929085,47.3023131],[8.3928937,47.3023287],[8.3928765,47.302341],[8.3928564,47.3023511],[8.3928339,47.3023586],[8.3928063,47.3023637],[8.3927778,47.3023649],[8.3927495,47.3023622],[8.3927226,47.3023557],[8.3927017,47.3023863],[8.3924919,47.3026814],[8.3920258,47.3033002],[8.391931,47.3034261],[8.3918207,47.3035725],[8.3917869,47.303619],[8.3917022,47.3037353],[8.3914757,47.3040406],[8.3912699,47.304333],[8.3910855,47.304642],[8.3909348,47.3049492],[8.3907908,47.30526],[8.3905447,47.3057759],[8.3903473,47.3062091],[8.3902858,47.3064057],[8.3902561,47.3066135],[8.3902628,47.3068285],[8.3903026,47.3070217],[8.3904754,47.3075423],[8.3905144,47.3076603],[8.3905176,47.3077833],[8.3905189,47.3079668],[8.3905197,47.3080771],[8.3905129,47.3082187],[8.3904941,47.3083219],[8.3904467,47.3085008],[8.390426,47.3085693],[8.3903298,47.3088317],[8.3902343,47.3090698],[8.3901192,47.3093676],[8.3900599,47.3095379],[8.3900364,47.3096465],[8.3900172,47.3097838],[8.3900181,47.3099121],[8.390028,47.3099902],[8.3900537,47.3101004],[8.3900761,47.3101798],[8.3901076,47.3102914],[8.3901348,47.3104163],[8.3901897,47.3106929],[8.3901917,47.3107753],[8.3901814,47.310851],[8.3901512,47.3109961],[8.3901216,47.3111598],[8.3901043,47.3112495],[8.3900737,47.3113455],[8.3900128,47.3114697],[8.3899246,47.311619],[8.3898871,47.3116883],[8.3898154,47.3118173],[8.389766,47.3119064],[8.3896849,47.3120303],[8.389628,47.312099],[8.3895069,47.3122381],[8.3894636,47.3123054],[8.3894308,47.3123777],[8.3894144,47.3124432],[8.3894057,47.3125104],[8.3894019,47.3126184],[8.3893833,47.3127477],[8.3893547,47.3128508],[8.3893025,47.3129685],[8.3892312,47.3130777],[8.3891716,47.3131612],[8.3891001,47.3132382],[8.3890369,47.3132948],[8.3889668,47.3133511],[8.3888894,47.3134075],[8.3885843,47.313626],[8.3884152,47.313747],[8.3882938,47.3138393],[8.3881986,47.3139279],[8.3881141,47.3140255],[8.3880354,47.3141449],[8.3878309,47.3145356],[8.3877616,47.3146423],[8.3876793,47.3147499],[8.3875832,47.314853],[8.3875042,47.3149173],[8.387481,47.3149361],[8.3872985,47.3150517],[8.3871152,47.3151599],[8.3869679,47.3152478],[8.3867152,47.315405],[8.3864643,47.3155816],[8.3862666,47.3157485],[8.3861236,47.3158977],[8.3859935,47.3160636],[8.3859275,47.3161725],[8.3858661,47.3162992],[8.3858185,47.3164243],[8.3857833,47.3165474],[8.3856944,47.3169957],[8.3856739,47.3170468],[8.3856263,47.3171657],[8.3854737,47.3174428],[8.3851358,47.3179508],[8.3848852,47.3182687],[8.3847236,47.3184584],[8.3845495,47.3186426],[8.3843985,47.3187948],[8.3841727,47.3190036],[8.3839479,47.3192001],[8.3835453,47.3195492],[8.3832878,47.3197639],[8.3830983,47.3199444],[8.383003,47.3200404],[8.3829434,47.3201037],[8.3827938,47.3202624],[8.3827021,47.3203572],[8.3825549,47.3205099],[8.3824503,47.3206186],[8.3823669,47.3207076],[8.3823032,47.3207725],[8.3822836,47.32079],[8.3822093,47.3208707],[8.3821783,47.3209033],[8.3821116,47.3209736],[8.3820197,47.321069],[8.3819522,47.3211181],[8.3818973,47.3211476],[8.3818308,47.321177],[8.3817449,47.3212108],[8.3816105,47.3212404],[8.3814336,47.3212935],[8.3813178,47.3213281],[8.3811979,47.3213773],[8.381118,47.3214234],[8.3810422,47.3214814],[8.3809973,47.3215257],[8.38081,47.3217484],[8.3805608,47.3220505],[8.3803504,47.3223126],[8.3801326,47.32258],[8.3800657,47.3226611],[8.3798491,47.3229465],[8.3797347,47.3230929],[8.3795804,47.3232654],[8.3794879,47.323384],[8.3794327,47.3234675],[8.3793839,47.3235588],[8.3793024,47.3237115],[8.3792082,47.3238621],[8.3788329,47.3244918],[8.3787982,47.3245463],[8.3787616,47.324601],[8.3786713,47.3247324],[8.3786226,47.3248145],[8.3785484,47.3249578],[8.378495,47.3250618],[8.378431,47.3251629],[8.3783638,47.325257],[8.3782872,47.3253543],[8.3782383,47.3254137],[8.3780278,47.3256548],[8.3775234,47.326136],[8.3771474,47.3264905],[8.3769051,47.3267201],[8.3762829,47.3273068],[8.3759024,47.3276672],[8.3756289,47.3279259],[8.3754891,47.3280591],[8.3750487,47.3284684],[8.3746421,47.3288122],[8.374416,47.3289831],[8.3741802,47.329147],[8.3738172,47.3293729],[8.3732878,47.3296682],[8.3727539,47.3299519],[8.3722312,47.3302288],[8.3718458,47.330438],[8.3716135,47.3305696],[8.3714062,47.3307032],[8.371111,47.330908],[8.370739,47.3312122],[8.3706034,47.3313366],[8.3696929,47.3322067],[8.3694883,47.3323786],[8.3692672,47.3325397],[8.3689628,47.3327205],[8.3686317,47.3328811],[8.3682837,47.3330216],[8.367966,47.333145],[8.3674157,47.3333634],[8.3671529,47.3334844],[8.3668661,47.3336268],[8.3667579,47.3336852],[8.3663809,47.3339108],[8.3661388,47.334074],[8.3656755,47.3344178],[8.3655975,47.3344806],[8.3653811,47.3346525],[8.3649659,47.3349759],[8.3647358,47.3351233],[8.3644888,47.3352529],[8.3642482,47.3353457],[8.3640833,47.3353962],[8.363686,47.3355032],[8.3634313,47.3355875],[8.3631612,47.3357017],[8.3629722,47.3358004],[8.3625965,47.3360156],[8.3623824,47.3361322],[8.3622352,47.3361985],[8.3615724,47.3364653],[8.3600654,47.337083],[8.3597222,47.3371935],[8.3589503,47.337442],[8.3584801,47.3376447],[8.358125,47.3378375],[8.3578413,47.3380196],[8.3576685,47.3381486],[8.3575042,47.3382868],[8.3571379,47.3386446],[8.357049,47.3387342],[8.3569028,47.3388691],[8.3568591,47.3389095],[8.3564649,47.3392707],[8.3563552,47.3393712],[8.3560106,47.3396935],[8.3559399,47.3397664],[8.3557763,47.3399599],[8.3556394,47.3401379],[8.3555564,47.3402561],[8.3554771,47.3403705],[8.3553071,47.3406333],[8.3551955,47.3408182],[8.3549239,47.3412727],[8.3547803,47.3415189],[8.3546391,47.3417506],[8.3543126,47.3423125],[8.3539251,47.342813],[8.3537083,47.3430515],[8.3535007,47.3432594],[8.352673,47.3440964],[8.3525914,47.3441734],[8.3524378,47.3443107],[8.3523631,47.3443709],[8.3522894,47.3444302],[8.3521578,47.3445287],[8.3519348,47.3446809],[8.3517962,47.344772],[8.3513136,47.3450933],[8.3510983,47.3452358],[8.3508503,47.3453994],[8.3507454,47.3454701],[8.3506553,47.3455296],[8.3505967,47.3455694],[8.3499693,47.3459837],[8.3497667,47.3461233],[8.3495708,47.3462728],[8.3495235,47.3463118],[8.3489875,47.3467993],[8.3489347,47.3468473],[8.3487402,47.3470305],[8.3484231,47.347323],[8.3482011,47.347538],[8.3481705,47.3475669],[8.3480776,47.3476616],[8.3478275,47.3479092],[8.3477081,47.348036],[8.3475848,47.3481597],[8.3474954,47.3482493],[8.3472922,47.3484497],[8.3468379,47.3488993],[8.3467321,47.3490015],[8.346436,47.3492775],[8.3463623,47.3493499],[8.3461555,47.3495246],[8.3460622,47.3496124],[8.3458784,47.3497694],[8.3457497,47.3498567],[8.3457184,47.3498782],[8.3454526,47.3500602],[8.3453259,47.3501383],[8.3451406,47.3502483],[8.3446825,47.3505224],[8.3444198,47.3506774],[8.3443485,47.3507309],[8.3442885,47.3507811],[8.3442702,47.3507995]]}}