{"type":"Feature","properties":{"key":"uetliberg"},"geometry":{"type":"LineString","coordinates":[[8.4894482,47.365241],[8.4895036,47.3652285],[8.4895564,47.3652032],[8.489598,47.3651716],[8.4896394,47.3651385],[8.4896809,47.3651096],[8.4897362,47.3650722],[8.4897821,47.3650468],[8.4898489,47.3650123],[8.4899608,47.3649601],[8.4900563,47.3649188],[8.4901149,47.3648926],[8.4901607,47.3648702],[8.4901939,47.3648452],[8.4902127,47.3648079],[8.4902287,47.3647639],[8.4902413,47.3647009],[8.49025,47.3646125],[8.4902561,47.3645798],[8.4902642,47.3645361],[8.4902794,47.3645062],[8.4903024,47.3644756],[8.4903359,47.3644438],[8.490373,47.3644131],[8.4904154,47.3643866],[8.4904578,47.3643647],[8.4905117,47.3643416],[8.4905735,47.3643256],[8.4906364,47.3643149],[8.4907117,47.3643136],[8.4907827,47.364316],[8.4908642,47.3643242],[8.4909564,47.3643358],[8.4910371,47.3643428],[8.4910984,47.3643399],[8.491149,47.3643299],[8.4912117,47.3643115],[8.4912655,47.3642872],[8.4913504,47.3642406],[8.4914491,47.3641826],[8.4915694,47.3641119],[8.4916828,47.3640396],[8.4917834,47.3639549],[8.4918453,47.3638943],[8.4919112,47.363829],[8.4919624,47.3637962],[8.4919818,47.3637565],[8.4920525,47.3636878],[8.4921605,47.3635827],[8.4922282,47.3635242],[8.4923026,47.3634619],[8.4925772,47.3632857],[8.4926882,47.3632085],[8.4927578,47.3631527],[8.4927942,47.3631052],[8.4928247,47.3630583],[8.4928517,47.36299],[8.4928899,47.3628946],[8.4929078,47.3628462],[8.4929183,47.3627929],[8.4929209,47.3627628],[8.4929083,47.3626836],[8.4928748,47.3625979],[8.4928058,47.362453],[8.4927766,47.3623757],[8.4927779,47.3623003],[8.4927791,47.362252],[8.4928026,47.3622059],[8.4928264,47.3621694],[8.492894,47.3621161],[8.493079,47.3619961],[8.4929771,47.3619289],[8.4929074,47.3618761],[8.4928351,47.3618189],[8.4927483,47.3617476],[8.4926498,47.3616607],[8.4925389,47.361526],[8.492457,47.3614935],[8.4923989,47.3614702],[8.4923371,47.3614388],[8.4922847,47.3614104],[8.4922235,47.3613632],[8.4921689,47.3613302],[8.492117,47.3612974],[8.4920371,47.3612459],[8.4919784,47.3612157],[8.4919519,47.3612007],[8.4919229,47.3611995],[8.4918945,47.3612092],[8.4918615,47.3612371],[8.4918598,47.3612547],[8.4918693,47.3612815],[8.4918764,47.3613058],[8.4918791,47.36133],[8.4918686,47.361364],[8.491848,47.3613959],[8.4918242,47.3614275],[8.4917848,47.3615203],[8.4917684,47.3615761],[8.4917625,47.3616176],[8.4917437,47.3616632],[8.4917167,47.361716],[8.4916764,47.3617553],[8.4916484,47.3617845],[8.4916154,47.3618094],[8.4915883,47.3618295],[8.4915614,47.3618427],[8.4915335,47.3618478],[8.4915022,47.3618406],[8.4914843,47.36183],[8.4914744,47.3618107],[8.4914782,47.3617113],[8.491475,47.3616688],[8.4914625,47.3616446],[8.49144,47.361626],[8.4913702,47.3615886],[8.4913478,47.3615691],[8.4913333,47.3615316],[8.4913238,47.361497],[8.4913089,47.3614654],[8.4912894,47.3614384],[8.4912655,47.3614144],[8.4912406,47.3613991],[8.4912217,47.3613818],[8.4911947,47.3613351],[8.4911795,47.3613087],[8.4911092,47.3612181],[8.4911017,47.3611975],[8.491096,47.3611776],[8.4911022,47.3610964],[8.4911201,47.3609772],[8.4911582,47.3608776],[8.4911619,47.3608547],[8.4911536,47.3608402],[8.4911223,47.3608265],[8.4910943,47.3608258],[8.4910641,47.360833],[8.4910411,47.3608493],[8.4909905,47.360939],[8.4908635,47.3610691],[8.4907643,47.3612658],[8.4907173,47.3613497],[8.4906987,47.3613779],[8.4906639,47.3614534],[8.490591,47.3616113],[8.490576,47.3616428],[8.4905587,47.3616604],[8.4905441,47.3616684],[8.4905344,47.3616716],[8.4905206,47.3616726],[8.4905072,47.3616686],[8.490492,47.3616618],[8.4904822,47.3616487],[8.4904754,47.3616182],[8.4904819,47.3615689],[8.4904853,47.3615438],[8.490483,47.3615129],[8.490475,47.3614394],[8.4904642,47.3613887],[8.4904469,47.3613212],[8.4904224,47.3612485],[8.4904104,47.3612241],[8.4903805,47.361192],[8.4903332,47.3611422],[8.4903206,47.3611216],[8.4903129,47.3611004],[8.4903023,47.3610695],[8.4902961,47.3610526],[8.4902872,47.3610358],[8.4902567,47.3609951],[8.4901917,47.3609136],[8.4901609,47.3608756],[8.4901349,47.3608367],[8.490126,47.3608163],[8.4901206,47.360791],[8.490122,47.36077],[8.4901307,47.3607509],[8.4901509,47.3606957],[8.4901548,47.3606709],[8.4901555,47.360654],[8.4901475,47.3606396],[8.4901157,47.3605956],[8.4901016,47.3605521],[8.4901018,47.3605296],[8.4901099,47.3605017],[8.4901052,47.3604623],[8.4900973,47.3604277],[8.4900875,47.3603918],[8.4900805,47.3603759],[8.4900611,47.3603563],[8.490013,47.3603191],[8.489977,47.3602818],[8.4899563,47.3602536],[8.4898862,47.3601748],[8.4898395,47.3601123],[8.4898207,47.3600744],[8.4898053,47.3600274],[8.4897963,47.3600074],[8.4897843,47.3599796],[8.489786,47.3599453],[8.4897884,47.359898],[8.4897911,47.3598628],[8.4897799,47.3598213],[8.4897525,47.3597628],[8.4897303,47.3596846],[8.4897213,47.35965],[8.4897145,47.3596361],[8.4897008,47.3596237],[8.4896813,47.3596212],[8.4896668,47.3596235],[8.4896583,47.3596281],[8.4896501,47.3596371],[8.4896461,47.3596498],[8.4896489,47.3596947],[8.4896538,47.3597344],[8.4896506,47.3597868],[8.4896262,47.3598278],[8.4896072,47.3598559],[8.4895927,47.3598969],[8.48959,47.3599226],[8.4895796,47.3599389],[8.4895564,47.359963],[8.4895196,47.3600012],[8.4894898,47.3600325],[8.4894593,47.3600585],[8.4894202,47.3600833],[8.489401,47.3601043],[8.4893905,47.3601272],[8.4893715,47.360163],[8.4893579,47.360179],[8.4893396,47.3601966],[8.489321,47.360212],[8.4893008,47.3602298],[8.489275,47.3602446],[8.4892561,47.3602546],[8.489156,47.3602879],[8.4891281,47.3603023],[8.4891094,47.3603286],[8.4891049,47.3603577],[8.4891054,47.3603862],[8.4891027,47.3604022],[8.4890946,47.3604124],[8.489081,47.3604203],[8.4890643,47.3604274],[8.4890463,47.3604325],[8.4890369,47.3604364],[8.4890319,47.3604414],[8.4890139,47.3605112],[8.4890168,47.3605255],[8.4890257,47.3605362],[8.4890386,47.360548],[8.4890513,47.3605573],[8.4890655,47.3605732],[8.4890693,47.3605864],[8.4890756,47.3606417],[8.4890776,47.3606964],[8.4890889,47.3607243],[8.4891021,47.3607549],[8.4891082,47.3607786],[8.4891051,47.360798],[8.4890915,47.3608188],[8.4890853,47.3608266],[8.4890718,47.3608527],[8.4890652,47.3608913],[8.4890584,47.3609395],[8.4890537,47.3609538],[8.4890398,47.3609669],[8.4890206,47.3609745],[8.4889917,47.3609794],[8.4889357,47.3609818],[8.4889095,47.3609911],[8.488895,47.3610099],[8.4888876,47.3610374],[8.4888768,47.3610579],[8.4888648,47.3610776],[8.4888371,47.3611065],[8.4888168,47.3611269],[8.4888018,47.3611404],[8.4887824,47.3611527],[8.48876,47.3611564],[8.4887423,47.361152],[8.4887329,47.361144],[8.4887345,47.3611308],[8.488764,47.3611007],[8.488777,47.3610773],[8.4887855,47.3610522],[8.4887835,47.3610372],[8.4887763,47.3610242],[8.4887453,47.3609775],[8.4887437,47.3609645],[8.4887544,47.3609464],[8.4887675,47.3609316],[8.4887857,47.3609167],[8.4888232,47.3609029],[8.4888534,47.3608871],[8.4888747,47.3608632],[8.4888832,47.3608428],[8.4888907,47.3608146],[8.488892,47.3607976],[8.488889,47.3607661],[8.4888862,47.3607431],[8.4888774,47.3607268],[8.4888643,47.3607111],[8.4888289,47.3606873],[8.4887639,47.3606498],[8.4887421,47.3606386],[8.4887281,47.3606336],[8.4887129,47.3606324],[8.4886946,47.3606369],[8.4886854,47.3606446],[8.4886809,47.3606591],[8.4886885,47.3606704],[8.4887057,47.3606844],[8.4887371,47.3607022],[8.488754,47.3607177],[8.4887604,47.360734],[8.4887583,47.3607518],[8.4887422,47.3607723],[8.4887184,47.360787],[8.4886951,47.3607965],[8.4886705,47.3608032],[8.4886227,47.3608103],[8.4885422,47.3608196],[8.488503,47.3608285],[8.4884795,47.3608439],[8.4884714,47.3608651],[8.4884633,47.3609012],[8.4884673,47.3609368],[8.4884759,47.3609825],[8.4884752,47.3610015],[8.4884694,47.3610193],[8.4884547,47.3610343],[8.4884242,47.3610429],[8.4883993,47.3610461],[8.4883771,47.3610424],[8.4883639,47.3610319],[8.4883636,47.3610127],[8.4883725,47.3609837],[8.488371,47.3609453],[8.4883599,47.3609203],[8.488345,47.3608976],[8.4883334,47.3608805],[8.4883134,47.3608523],[8.4883129,47.3608387],[8.4883186,47.3608196],[8.4883483,47.3607907],[8.4883817,47.3607635],[8.4883952,47.3607482],[8.4883973,47.3607311],[8.4883949,47.3607093],[8.4883818,47.3606935],[8.4883521,47.3606651],[8.4883121,47.3606408],[8.4882951,47.3606372],[8.4882742,47.3606391],[8.4882624,47.3606468],[8.4882575,47.3606576],[8.4882711,47.3607064],[8.4882693,47.3607241],[8.4882589,47.3607373],[8.488234,47.3607515],[8.4881931,47.3607708],[8.4881507,47.3608119],[8.4881189,47.3608566],[8.4880882,47.3609118],[8.488058,47.3609701],[8.4880129,47.3610382],[8.4879917,47.3610702],[8.4879345,47.3611289],[8.4879199,47.3612034],[8.4879145,47.3612366],[8.4879328,47.3613119],[8.4879689,47.3614245],[8.4879653,47.3615037],[8.4879625,47.3615478],[8.487964,47.3615912],[8.487978,47.36165],[8.488,47.3617377],[8.4880181,47.3618198],[8.4880249,47.3618513],[8.4880386,47.3618889],[8.4880492,47.3619079],[8.4880456,47.3619285],[8.4880319,47.3619391],[8.4880124,47.361942],[8.4879919,47.361939],[8.4879714,47.361926],[8.4879337,47.3618907],[8.4876319,47.3615604],[8.4875454,47.3614406],[8.4875122,47.3613946],[8.487477,47.361329],[8.487468,47.36129],[8.4873955,47.3610692],[8.4873159,47.3610534],[8.4871361,47.3610179],[8.4870289,47.3609884],[8.4870453,47.3609123],[8.4870828,47.360897],[8.4870941,47.3608826],[8.4870974,47.3608772],[8.4871176,47.3608449],[8.487148,47.3607859],[8.4871935,47.3606978],[8.4872308,47.3605885],[8.4872388,47.3605132],[8.4872195,47.3604038],[8.4871755,47.3602302],[8.4871397,47.3600949],[8.4870732,47.3600478],[8.4869868,47.3599351],[8.4869389,47.3598582],[8.4868922,47.3597581],[8.4868574,47.3596364],[8.4868205,47.3595398],[8.4867896,47.3594799],[8.4867547,47.3594312],[8.4866473,47.3593564],[8.4865739,47.3592867],[8.4865454,47.3592423],[8.4865222,47.3591653],[8.4865129,47.3590832],[8.4864981,47.3590405],[8.4863597,47.3588615],[8.4863092,47.3587852],[8.4862824,47.358714],[8.4862735,47.3586617],[8.4862771,47.3585402],[8.4862721,47.3584505],[8.4862276,47.3583069],[8.4861872,47.35824],[8.4861415,47.3581809],[8.4860595,47.3581109],[8.4858904,47.3579673],[8.485753,47.3578187],[8.4856956,47.3577779],[8.4856563,47.3576962],[8.4855248,47.3575528],[8.4854539,47.3574666],[8.4854303,47.3574257],[8.4854045,47.3573605],[8.4853962,47.3572951],[8.4854221,47.3570944],[8.4856538,47.3558759],[8.4856781,47.3557757],[8.4857135,47.355704],[8.4857706,47.3556243],[8.4858366,47.3555571],[8.4859091,47.3555017],[8.4860587,47.3554037],[8.4862662,47.3552914],[8.4862984,47.3552578],[8.486341,47.355159],[8.4863856,47.355108],[8.4864444,47.3550718],[8.486507,47.355048],[8.4865698,47.3550373],[8.4866398,47.3550361],[8.4868126,47.3550488],[8.4868835,47.3550499],[8.4869613,47.3550451],[8.4870233,47.3550332],[8.4870772,47.3550166],[8.4871432,47.3549887],[8.4872308,47.3549444],[8.4873951,47.3548406],[8.4874647,47.3547721],[8.4875828,47.3546366],[8.4876331,47.3545659],[8.4876615,47.3544984],[8.4876671,47.3544276],[8.4876626,47.3543773],[8.4876378,47.3543055],[8.4876131,47.3542592],[8.4876322,47.3542162],[8.4876563,47.3541581],[8.487662,47.3541274],[8.4876587,47.3540909],[8.4876441,47.3540137],[8.4876283,47.3539246],[8.4876136,47.3538426],[8.4876076,47.3538053],[8.4876119,47.3537594],[8.4876331,47.3537224],[8.4876742,47.353675],[8.4877033,47.3536426],[8.4877212,47.3536156],[8.4877303,47.3535888],[8.4877366,47.3535542],[8.4877471,47.3535101],[8.4877707,47.3534647],[8.4878037,47.3534055],[8.4878385,47.3533474],[8.4878691,47.353304],[8.4879139,47.3532679],[8.4879563,47.3532383],[8.4880037,47.3532124],[8.488016,47.3532056],[8.4881028,47.3531686],[8.4881645,47.3531436],[8.4882001,47.3531272],[8.4882217,47.3531115],[8.4882311,47.3530984],[8.4882333,47.3530799],[8.4882294,47.3530585],[8.4882238,47.3530425],[8.4881955,47.3530129],[8.4881446,47.3529598],[8.4880765,47.3528807],[8.4880479,47.3528071],[8.4880503,47.3527615],[8.4880693,47.3527208],[8.4881747,47.3528119],[8.4882291,47.3528485],[8.488284,47.3528717],[8.4883321,47.3528802],[8.4883747,47.3528825],[8.4884188,47.3528832],[8.4884501,47.3528798],[8.4885168,47.3528651],[8.4885792,47.3528391],[8.4886025,47.3528217],[8.4886213,47.3527992],[8.4886318,47.3527702],[8.4886347,47.3527411],[8.4886322,47.3527169],[8.4886266,47.3526916],[8.4886099,47.3526448],[8.4885841,47.352598],[8.4884524,47.3524131],[8.4881855,47.3520405],[8.4881739,47.3520018],[8.4881749,47.3519669],[8.488183,47.3519382],[8.4882025,47.3519048],[8.4882279,47.3518844],[8.4885832,47.3517892],[8.4886537,47.3517537],[8.4887628,47.3516934],[8.4889038,47.3515949],[8.4891666,47.3513494],[8.4892391,47.351274],[8.4892923,47.3512186],[8.4894355,47.3510793],[8.4894553,47.351061],[8.4895702,47.3509552],[8.4898113,47.3507527],[8.4898972,47.3506494],[8.490025,47.3505722],[8.4900689,47.3505434],[8.490101,47.3505096],[8.4901309,47.3504736],[8.4901487,47.3504327],[8.4901597,47.3503988],[8.4901722,47.3503253],[8.4901976,47.3501941],[8.4902043,47.3500624],[8.4901953,47.3500034],[8.4901685,47.3499055],[8.4900936,47.3497293],[8.4900166,47.3496111],[8.4899885,47.3495388],[8.489925,47.3492238],[8.4899122,47.3491085],[8.4899229,47.3490433],[8.489952,47.348993],[8.4899939,47.3489427],[8.4901815,47.3488814],[8.4907998,47.3487037],[8.4908775,47.3486985],[8.4910144,47.3487048],[8.4914365,47.3487368],[8.4915284,47.3487393],[8.4916325,47.3487295],[8.4918151,47.3486904],[8.4918746,47.3486645],[8.4920368,47.3486034],[8.4923251,47.3484882],[8.492412,47.3484483],[8.4925076,47.3484014],[8.4925498,47.3483713],[8.4927477,47.3482047],[8.4929453,47.3480232],[8.4930219,47.347999],[8.4931197,47.3479898],[8.4933235,47.3479916],[8.4935747,47.3479891],[8.4938607,47.3479101],[8.4939835,47.3478712],[8.4941167,47.3478258],[8.4942171,47.3477867],[8.4943617,47.3477353],[8.4945528,47.3476445],[8.4947173,47.3475411],[8.4948065,47.3474585],[8.4948926,47.3473375],[8.4949307,47.3472233],[8.494937,47.3471353],[8.4949567,47.3470459],[8.495013,47.3469502],[8.4951098,47.3468695],[8.4951966,47.3468349],[8.4952797,47.3468228],[8.4954661,47.3468223],[8.4955463,47.3468116],[8.4956134,47.3467897],[8.4957487,47.3467274],[8.4959246,47.3466289],[8.4961332,47.3465483],[8.4963003,47.3464837],[8.4963718,47.3464428],[8.4964178,47.3464166],[8.4965071,47.3464227],[8.4967667,47.3462914],[8.496872,47.3462687],[8.4970028,47.346227],[8.4971107,47.3461627],[8.4971839,47.3460952],[8.4972209,47.346071],[8.4974236,47.3459806],[8.497611,47.3459549],[8.4977963,47.3459394]]}}