{"type":"Feature","properties":{"key":"zimmerberg-rundfahrt"},"geometry":{"type":"LineString","coordinates":[[8.530829,47.36282],[8.530878,47.362678],[8.530911,47.362603],[8.530959,47.362556],[8.531001,47.362484],[8.531029,47.362407],[8.531055,47.3622],[8.531127,47.361633],[8.531132,47.361599],[8.531179,47.361254],[8.531196,47.361131],[8.531222,47.361073],[8.531241,47.361005],[8.531179,47.360992],[8.53104,47.360966],[8.530811,47.360924],[8.530517,47.36087],[8.530351,47.360839],[8.529616,47.360696],[8.529527,47.360679],[8.529431,47.360664],[8.529394,47.360661],[8.529303,47.360665],[8.529223,47.360672],[8.529188,47.360643],[8.529149,47.360626],[8.529095,47.36062],[8.528818,47.360598],[8.528559,47.360577],[8.5285,47.360572],[8.527426,47.360485],[8.527333,47.360477],[8.52725,47.360471],[8.526912,47.360446],[8.526719,47.360432],[8.526665,47.360428],[8.526619,47.360685],[8.52658,47.360907],[8.526514,47.361233],[8.526526,47.361297],[8.526468,47.36165],[8.526405,47.36171],[8.526364,47.361749],[8.526326,47.361768],[8.526283,47.361781],[8.52623,47.361786],[8.526125,47.361715],[8.526053,47.361666],[8.525856,47.361529],[8.525628,47.361375],[8.525511,47.361361],[8.525448,47.361351],[8.525341,47.361303],[8.525325,47.361293],[8.524806,47.360963],[8.524628,47.360837],[8.524603,47.360812],[8.524543,47.36073],[8.52441,47.360656],[8.524216,47.360544],[8.523945,47.360392],[8.523853,47.360343],[8.523774,47.360303],[8.523676,47.360262],[8.523605,47.360235],[8.523528,47.360213],[8.523194,47.360119],[8.523088,47.36009],[8.522978,47.360051],[8.522842,47.360041],[8.522817,47.360036],[8.52279,47.360024],[8.522758,47.360004],[8.522701,47.359957],[8.522614,47.359872],[8.522481,47.359717],[8.522383,47.359586],[8.522361,47.359558],[8.522236,47.359384],[8.522195,47.35934],[8.522098,47.359233],[8.521922,47.359043],[8.521864,47.358974],[8.521829,47.358925],[8.5218,47.358875],[8.521775,47.358812],[8.521756,47.358747],[8.521747,47.358658],[8.521727,47.35841],[8.521726,47.358386],[8.521701,47.358021],[8.521697,47.357969],[8.521688,47.357918],[8.521669,47.357869],[8.521633,47.357812],[8.521626,47.357804],[8.521594,47.357768],[8.521552,47.357728],[8.521506,47.357699],[8.521539,47.357616],[8.521586,47.357544],[8.521625,47.35749],[8.521674,47.35741],[8.521718,47.357338],[8.521834,47.357148],[8.521877,47.357082],[8.522024,47.356836],[8.522159,47.356615],[8.522263,47.356445],[8.522824,47.355523],[8.522959,47.355302],[8.523168,47.354959],[8.523174,47.354949],[8.523233,47.354898],[8.523446,47.354548],[8.523493,47.354439],[8.523661,47.354149],[8.523672,47.354131],[8.523957,47.353664],[8.524169,47.353365],[8.524238,47.353281],[8.524371,47.353133],[8.524612,47.352859],[8.524735,47.352704],[8.524811,47.352533],[8.524852,47.352277],[8.524867,47.352184],[8.524888,47.351863],[8.524868,47.351683],[8.524829,47.351568],[8.524801,47.351475],[8.524738,47.351281],[8.524626,47.35102],[8.524535,47.350847],[8.524437,47.350683],[8.524351,47.350549],[8.524245,47.350402],[8.524137,47.350258],[8.524012,47.350112],[8.5239,47.349985],[8.523755,47.349835],[8.52348,47.349583],[8.522996,47.349162],[8.522832,47.349045],[8.522646,47.348917],[8.52229,47.348682],[8.521615,47.348197],[8.520719,47.347555],[8.519976,47.347073],[8.519856,47.346985],[8.519817,47.34695],[8.519697,47.346837],[8.51955,47.346693],[8.519435,47.346563],[8.519386,47.3465],[8.519333,47.346422],[8.519275,47.346325],[8.51923,47.346247],[8.519183,47.346147],[8.519138,47.346033],[8.519102,47.345924],[8.519079,47.345832],[8.519059,47.345731],[8.519047,47.345631],[8.519033,47.345457],[8.519025,47.345317],[8.519017,47.345239],[8.519008,47.345181],[8.518994,47.345114],[8.518979,47.345064],[8.518965,47.34502],[8.51895,47.344986],[8.51892,47.344928],[8.518903,47.344895],[8.518879,47.344857],[8.518853,47.344821],[8.518821,47.344778],[8.51879,47.344745],[8.518753,47.344707],[8.51871,47.344667],[8.518665,47.344629],[8.518606,47.344585],[8.518546,47.344543],[8.518488,47.344508],[8.518411,47.344467],[8.518337,47.344432],[8.51826,47.3444],[8.518192,47.344374],[8.518109,47.344346],[8.518032,47.344326],[8.517933,47.344306],[8.517829,47.344287],[8.517693,47.344269],[8.517556,47.344258],[8.517333,47.344244],[8.517118,47.344242],[8.516587,47.344263],[8.515965,47.344284],[8.515838,47.344289],[8.51498,47.344319],[8.513426,47.344387],[8.51265,47.344438],[8.511884,47.344517],[8.510925,47.344643],[8.509967,47.344786],[8.507989,47.34508],[8.502758,47.345853],[8.489934,47.347748],[8.4768,47.349689],[8.474838,47.349972],[8.473902,47.35008],[8.472985,47.350134],[8.472339,47.350148],[8.471679,47.350139],[8.471058,47.35011],[8.470458,47.35006],[8.469692,47.349981],[8.468921,47.349865],[8.468592,47.349805],[8.468258,47.349732],[8.467596,47.349566],[8.466801,47.349344],[8.466098,47.3491],[8.465639,47.34893],[8.46518,47.348731],[8.464897,47.348599],[8.464619,47.348453],[8.464153,47.348205],[8.463723,47.347932],[8.463475,47.347754],[8.463222,47.347567],[8.462742,47.347181],[8.462387,47.346834],[8.462054,47.346468],[8.461664,47.345968],[8.461146,47.345173],[8.460728,47.344599],[8.460503,47.344324],[8.460357,47.344166],[8.460259,47.344069],[8.46011,47.343923],[8.459873,47.343699],[8.459286,47.343209],[8.459094,47.34307],[8.458894,47.342915],[8.458757,47.342802],[8.458614,47.342672],[8.458473,47.34253],[8.458347,47.342378],[8.458202,47.342134],[8.458138,47.342027],[8.458073,47.341872],[8.458021,47.341593],[8.458007,47.341402],[8.458012,47.341208],[8.458052,47.341023],[8.458087,47.340894],[8.458127,47.340766],[8.458173,47.340655],[8.458222,47.340558],[8.458376,47.340311],[8.458545,47.340057],[8.459001,47.33936],[8.459074,47.339245],[8.459196,47.339052],[8.459327,47.33882],[8.45944,47.338598],[8.459557,47.338327],[8.45965,47.338065],[8.459725,47.337765],[8.459752,47.337622],[8.459764,47.337561],[8.459788,47.337357],[8.459809,47.337081],[8.459822,47.336809],[8.459819,47.33659],[8.459805,47.336332],[8.459784,47.336163],[8.459761,47.336],[8.459729,47.335841],[8.459694,47.335692],[8.459673,47.335621],[8.459597,47.335362],[8.45952,47.335155],[8.459436,47.334928],[8.45918,47.334437],[8.458896,47.333933],[8.458595,47.333492],[8.458249,47.333068],[8.457525,47.332233],[8.456009,47.330612],[8.454994,47.329519],[8.452936,47.327302],[8.447969,47.321945],[8.446846,47.320734],[8.440903,47.314325],[8.434659,47.307592],[8.433838,47.306707],[8.432202,47.304943],[8.431265,47.303935],[8.430635,47.303169],[8.430104,47.30238],[8.429856,47.301921],[8.429662,47.301471],[8.429495,47.301031],[8.429335,47.30044],[8.429235,47.299858],[8.429135,47.298841],[8.429069,47.298329],[8.428999,47.297864],[8.428893,47.297434],[8.428759,47.297007],[8.428606,47.296623],[8.428427,47.296224],[8.428382,47.296137],[8.428236,47.295868],[8.428091,47.295621],[8.427945,47.295383],[8.427733,47.295049],[8.427371,47.294487],[8.426714,47.293479],[8.426243,47.29275],[8.425743,47.291981],[8.425069,47.29093],[8.424741,47.29038],[8.424572,47.290093],[8.424428,47.289821],[8.424226,47.289412],[8.424095,47.289095],[8.424002,47.288857],[8.423912,47.288571],[8.423837,47.288273],[8.423774,47.287974],[8.423724,47.287609],[8.4237,47.287297],[8.423699,47.287148],[8.423699,47.286971],[8.423703,47.286789],[8.423724,47.286562],[8.423759,47.286293],[8.423821,47.285945],[8.423897,47.285639],[8.423991,47.28535],[8.424081,47.285106],[8.424164,47.284902],[8.424271,47.28467],[8.424393,47.284433],[8.424549,47.284159],[8.424701,47.283915],[8.424934,47.28357],[8.425259,47.283105],[8.426261,47.281692],[8.426417,47.281473],[8.426572,47.281255],[8.427449,47.280018],[8.427707,47.279686],[8.427919,47.279428],[8.428137,47.27918],[8.428441,47.278853],[8.428765,47.278539],[8.428982,47.278335],[8.429217,47.278136],[8.429473,47.277927],[8.429733,47.277728],[8.430369,47.277294],[8.430881,47.276982],[8.431456,47.27667],[8.432336,47.276233],[8.433193,47.275833],[8.433771,47.275563],[8.434144,47.275378],[8.434527,47.275176],[8.4348,47.275021],[8.43505,47.274873],[8.435157,47.27481],[8.435384,47.274663],[8.435757,47.274404],[8.436038,47.274189],[8.436355,47.27393],[8.436623,47.273684],[8.436866,47.273449],[8.437092,47.273211],[8.437282,47.272994],[8.437525,47.272686],[8.437718,47.272418],[8.437814,47.272272],[8.437964,47.272024],[8.438067,47.271843],[8.438129,47.271726],[8.438155,47.271676],[8.438242,47.271477],[8.438265,47.271425],[8.43836,47.271213],[8.43846,47.270967],[8.438577,47.270625],[8.438693,47.270272],[8.438884,47.269644],[8.439116,47.268894],[8.439248,47.268447],[8.439378,47.268025],[8.439499,47.267636],[8.43964,47.267172],[8.439785,47.266707],[8.439834,47.266543],[8.43994,47.266198],[8.44043,47.264597],[8.441108,47.262386],[8.441301,47.261765],[8.441517,47.261108],[8.441739,47.260508],[8.441934,47.260054],[8.442141,47.259628],[8.442311,47.259305],[8.442509,47.258951],[8.442585,47.258821],[8.442678,47.258671],[8.442836,47.258426],[8.442972,47.258225],[8.443114,47.258021],[8.443359,47.257686],[8.443596,47.257384],[8.443821,47.257106],[8.444091,47.256783],[8.445806,47.254801],[8.447379,47.252992],[8.448253,47.251984],[8.449069,47.251051],[8.449769,47.250231],[8.450005,47.249949],[8.450463,47.249389],[8.450899,47.248832],[8.451219,47.248409],[8.451621,47.247856],[8.452009,47.247276],[8.452212,47.246969],[8.452412,47.246655],[8.45255,47.246432],[8.452679,47.246215],[8.452846,47.245935],[8.453022,47.245627],[8.453292,47.24514],[8.453498,47.244751],[8.45375,47.244248],[8.45394,47.243848],[8.454294,47.243025],[8.454713,47.241987],[8.455329,47.240386],[8.455734,47.239307],[8.455936,47.23876],[8.456901,47.236182],[8.457851,47.233645],[8.457994,47.233254],[8.458077,47.233035],[8.458226,47.232661],[8.458357,47.232364],[8.458431,47.232206],[8.458504,47.232059],[8.458579,47.231918],[8.458655,47.231779],[8.458744,47.231626],[8.458838,47.231469],[8.458922,47.231334],[8.459014,47.231196],[8.459198,47.230931],[8.45935,47.230726],[8.459459,47.230589],[8.459564,47.230456],[8.459688,47.23031],[8.459811,47.23017],[8.460063,47.229899],[8.460205,47.229754],[8.460375,47.229584],[8.460603,47.229371],[8.460877,47.229127],[8.461199,47.228856],[8.461401,47.228685],[8.461973,47.228198],[8.462479,47.227741],[8.462804,47.227422],[8.462959,47.227256],[8.463132,47.22707],[8.463273,47.226905],[8.463408,47.226736],[8.463578,47.226521],[8.463725,47.22632],[8.463876,47.226105],[8.464024,47.225881],[8.464172,47.22564],[8.464263,47.22549],[8.464353,47.225336],[8.464734,47.224654],[8.464804,47.224528],[8.465126,47.223942],[8.466221,47.221968],[8.466737,47.221035],[8.467264,47.220081],[8.468433,47.217971],[8.468906,47.217118],[8.469372,47.216278],[8.469681,47.215694],[8.469889,47.21529],[8.47011,47.214843],[8.470234,47.214571],[8.470363,47.214259],[8.470489,47.213944],[8.470594,47.21363],[8.470701,47.213299],[8.470801,47.212954],[8.470873,47.212627],[8.470931,47.212305],[8.470977,47.211933],[8.470997,47.211663],[8.471003,47.211444],[8.470999,47.2112],[8.47099,47.210971],[8.470971,47.210739],[8.470944,47.210533],[8.470919,47.210382],[8.470889,47.210207],[8.470854,47.210041],[8.470811,47.209847],[8.470758,47.209659],[8.470678,47.209381],[8.47056,47.209067],[8.470466,47.208854],[8.470356,47.208605],[8.470206,47.208312],[8.470176,47.208252],[8.470123,47.208163],[8.470022,47.20799],[8.469914,47.207815],[8.469815,47.207662],[8.469712,47.207509],[8.469586,47.207334],[8.469444,47.207149],[8.469285,47.206958],[8.469165,47.206812],[8.469045,47.206677],[8.46884,47.206455],[8.468662,47.206271],[8.468454,47.206065],[8.46826,47.20588],[8.468038,47.205676],[8.467844,47.205504],[8.467574,47.205272],[8.467384,47.205115],[8.467205,47.204971],[8.466971,47.204784],[8.466729,47.204597],[8.466481,47.204406],[8.466221,47.20421],[8.465907,47.203974],[8.465262,47.203508],[8.46479,47.203221],[8.464269,47.202879],[8.464059,47.202743],[8.464008,47.20271],[8.463605,47.202456],[8.463196,47.202212],[8.462098,47.201583],[8.461561,47.201274],[8.46147,47.20122],[8.461361,47.201151],[8.461265,47.20108],[8.461202,47.201032],[8.461153,47.20099],[8.461102,47.200946],[8.461053,47.200899],[8.461013,47.200855],[8.460977,47.200812],[8.460946,47.20077],[8.460916,47.200723],[8.460889,47.200671],[8.46087,47.200629],[8.460856,47.200599],[8.460839,47.200551],[8.460824,47.2005],[8.46081,47.200446],[8.460803,47.200399],[8.460799,47.200359],[8.460798,47.200324],[8.460798,47.200281],[8.4608,47.200244],[8.460805,47.2002],[8.460813,47.200158],[8.460825,47.200111],[8.46084,47.200063],[8.460859,47.200016],[8.46088,47.199972],[8.460904,47.199928],[8.460927,47.199889],[8.460955,47.199848],[8.460984,47.19981],[8.461012,47.199777],[8.461041,47.199744],[8.461086,47.199698],[8.46113,47.199656],[8.461172,47.199619],[8.461216,47.199582],[8.461264,47.199547],[8.461312,47.199512],[8.461383,47.199465],[8.46146,47.199418],[8.461531,47.199376],[8.461741,47.199262],[8.461959,47.199155],[8.462621,47.198845],[8.462882,47.198721],[8.463233,47.198551],[8.463572,47.198383],[8.463736,47.198301],[8.463897,47.198216],[8.464051,47.198132],[8.464208,47.198042],[8.464309,47.197985],[8.464415,47.197921],[8.464485,47.197878],[8.464556,47.197833],[8.464695,47.197744],[8.464868,47.197625],[8.465404,47.197279],[8.465996,47.196803],[8.466564,47.196362],[8.469062,47.19443],[8.470521,47.193346],[8.471208,47.19282],[8.471656,47.192489],[8.471901,47.192313],[8.472148,47.192146],[8.47236,47.192007],[8.472757,47.19176],[8.473128,47.191545],[8.473365,47.191416],[8.473616,47.191282],[8.473846,47.191165],[8.474069,47.191055],[8.474332,47.190931],[8.47458,47.190817],[8.474806,47.190719],[8.474969,47.190647],[8.475289,47.190512],[8.475597,47.190395],[8.475963,47.190262],[8.476269,47.190157],[8.476586,47.190056],[8.476868,47.189973],[8.477279,47.189853],[8.478368,47.189552],[8.479043,47.189367],[8.47992,47.189127],[8.480469,47.188979],[8.481004,47.188835],[8.481631,47.188673],[8.482105,47.188554],[8.482617,47.18843],[8.48292,47.188359],[8.483215,47.188293],[8.483606,47.18821],[8.48386,47.188158],[8.484121,47.188108],[8.484403,47.188059],[8.484754,47.188001],[8.484981,47.187967],[8.485208,47.187933],[8.485578,47.187883],[8.485893,47.187848],[8.486132,47.187826],[8.486604,47.187785],[8.486797,47.187771],[8.487205,47.187749],[8.487552,47.187735],[8.488006,47.187727],[8.488354,47.187727],[8.488711,47.187734],[8.488961,47.187741],[8.489317,47.187757],[8.489641,47.187779],[8.4899,47.187799],[8.490245,47.187831],[8.490581,47.187866],[8.49106,47.187926],[8.491531,47.187993],[8.492108,47.188084],[8.492608,47.188172],[8.493099,47.188263],[8.493574,47.18836],[8.494021,47.188455],[8.494563,47.188577],[8.495094,47.188704],[8.496014,47.188925],[8.496726,47.189097],[8.497714,47.189337],[8.498459,47.18952],[8.499223,47.189712],[8.499919,47.1899],[8.50043,47.190042],[8.501075,47.190233],[8.501508,47.190369],[8.502039,47.190544],[8.502543,47.19072],[8.503074,47.190916],[8.503593,47.191124],[8.504042,47.191308],[8.50452,47.191511],[8.505002,47.191727],[8.505476,47.191951],[8.505883,47.192151],[8.50675,47.192604],[8.507203,47.192857],[8.507676,47.193132],[8.508132,47.193416],[8.50881,47.193859],[8.50912,47.194071],[8.509424,47.194285],[8.509797,47.194554],[8.510162,47.194822],[8.510546,47.195112],[8.510882,47.195366],[8.511998,47.196222],[8.51283,47.19686],[8.514321,47.198006],[8.515916,47.199232],[8.516561,47.199726],[8.51704,47.200089],[8.517363,47.200326],[8.517839,47.200668],[8.518277,47.200972],[8.518644,47.201219],[8.518986,47.201446],[8.519448,47.201746],[8.5198,47.20196],[8.52024,47.202227],[8.520694,47.202494],[8.521139,47.20275],[8.521691,47.203056],[8.522238,47.203352],[8.522998,47.20376],[8.523361,47.203953],[8.525255,47.204974],[8.526537,47.20566],[8.526872,47.205834],[8.527125,47.205962],[8.527374,47.206084],[8.527622,47.206197],[8.527835,47.206291],[8.528092,47.206401],[8.528396,47.206523],[8.528962,47.206736],[8.529978,47.207119],[8.531164,47.207564],[8.532474,47.208055],[8.532919,47.208222],[8.534802,47.208925],[8.535733,47.20927],[8.536991,47.209743],[8.537493,47.209932],[8.537967,47.210109],[8.538263,47.210215],[8.538457,47.210283],[8.538649,47.210348],[8.538891,47.210425],[8.5391,47.210487],[8.539328,47.210552],[8.539517,47.210601],[8.539744,47.210655],[8.539967,47.210704],[8.540204,47.210752],[8.540473,47.210801],[8.540696,47.210833],[8.54094,47.210866],[8.541076,47.210881],[8.541226,47.210897],[8.541459,47.210918],[8.541671,47.210934],[8.541848,47.210944],[8.542029,47.210951],[8.542232,47.210956],[8.542396,47.210958],[8.542613,47.210956],[8.542841,47.210951],[8.543028,47.210944],[8.543258,47.210931],[8.543538,47.21091],[8.543879,47.21088],[8.544403,47.210826],[8.544701,47.210795],[8.544959,47.210769],[8.545184,47.210748],[8.545412,47.210729],[8.545598,47.210716],[8.545838,47.210703],[8.546121,47.210693],[8.546349,47.210692],[8.546591,47.210694],[8.546818,47.210701],[8.547067,47.210715],[8.547296,47.21073],[8.54752,47.21075],[8.547772,47.210779],[8.547984,47.210808],[8.548237,47.210847],[8.548468,47.210888],[8.548681,47.210929],[8.548878,47.210971],[8.549516,47.211116],[8.550015,47.211234],[8.550254,47.211288],[8.550472,47.211334],[8.550684,47.211376],[8.550971,47.211427],[8.55117,47.211459],[8.551374,47.211487],[8.551626,47.211516],[8.551887,47.211541],[8.552109,47.211558],[8.552338,47.21157],[8.552568,47.211578],[8.552842,47.211581],[8.553037,47.211582],[8.55333,47.211576],[8.553484,47.21157],[8.55412,47.211543],[8.554825,47.211509],[8.554842,47.211509],[8.555327,47.211493],[8.555734,47.211489],[8.555925,47.211488],[8.556117,47.211492],[8.556222,47.211495],[8.5565,47.211508],[8.556845,47.211534],[8.557269,47.211588],[8.557683,47.211652],[8.558178,47.211747],[8.558464,47.211816],[8.558682,47.211872],[8.559095,47.211999],[8.560124,47.212301],[8.560811,47.212503],[8.561196,47.212631],[8.561612,47.212764],[8.561837,47.21283],[8.562012,47.212881],[8.562064,47.212897],[8.562193,47.212948],[8.562224,47.212961],[8.562276,47.212993],[8.562404,47.213036],[8.562918,47.213199],[8.563718,47.213433],[8.5649,47.213784],[8.565289,47.213902],[8.565994,47.214128],[8.566811,47.214379],[8.56725,47.214512],[8.567687,47.214655],[8.567882,47.214717],[8.568201,47.21481],[8.568814,47.214985],[8.569264,47.215108],[8.569697,47.215219],[8.57004,47.2153],[8.570567,47.215417],[8.571719,47.21568],[8.571736,47.215684],[8.572038,47.215755],[8.57219,47.215761],[8.572317,47.215788],[8.572746,47.215883],[8.572888,47.215911],[8.57302,47.215933],[8.573162,47.21595],[8.573309,47.21598],[8.573595,47.216039],[8.573728,47.216062],[8.573769,47.216069],[8.573814,47.216059],[8.573862,47.21606],[8.573908,47.216069],[8.57394,47.216083],[8.573967,47.216101],[8.573986,47.216123],[8.573998,47.216149],[8.574001,47.216176],[8.573994,47.216203],[8.573977,47.216227],[8.573952,47.216248],[8.573921,47.216265],[8.573884,47.216275],[8.573851,47.216307],[8.57376,47.216344],[8.573698,47.216372],[8.573534,47.216416],[8.572986,47.216554],[8.572613,47.216632],[8.572286,47.216684],[8.571954,47.216719],[8.571669,47.216736],[8.571374,47.216744],[8.570495,47.216771],[8.569788,47.216788],[8.569432,47.2168],[8.569076,47.216816],[8.568664,47.216838],[8.568194,47.216877],[8.567793,47.216947],[8.567367,47.217088],[8.567172,47.21717],[8.567014,47.217251],[8.56651,47.217556],[8.566274,47.217684],[8.566026,47.217786],[8.565916,47.217818],[8.56582,47.217846],[8.565609,47.217895],[8.565417,47.217927],[8.56521,47.217952],[8.564396,47.218052],[8.564053,47.2181],[8.563717,47.218159],[8.563417,47.21822],[8.563135,47.218289],[8.562526,47.218457],[8.56173,47.218667],[8.561106,47.218818],[8.560694,47.21892],[8.560412,47.219001],[8.560199,47.219073],[8.560004,47.219152],[8.559749,47.219283],[8.55961,47.21937],[8.559499,47.21945],[8.559295,47.219625],[8.559157,47.219764],[8.559026,47.219908],[8.558907,47.220052],[8.558798,47.2202],[8.558699,47.220351],[8.55861,47.220506],[8.558449,47.22081],[8.558406,47.220889],[8.55829,47.221103],[8.558184,47.221249],[8.557964,47.221468],[8.557812,47.221564],[8.557563,47.221699],[8.557291,47.221821],[8.55673,47.22207],[8.555607,47.222549],[8.554338,47.223066],[8.553863,47.223274],[8.55311,47.223616],[8.552808,47.223732],[8.55275,47.223752],[8.552338,47.223884],[8.552118,47.223986],[8.551794,47.224093],[8.551663,47.224133],[8.551562,47.224153],[8.551424,47.224139],[8.551315,47.224124],[8.551129,47.224101],[8.550975,47.22409],[8.550812,47.22409],[8.550658,47.224103],[8.550416,47.22414],[8.550009,47.224211],[8.549763,47.224242],[8.549511,47.224258],[8.548992,47.224268],[8.548351,47.22428],[8.547951,47.224293],[8.547803,47.224306],[8.547646,47.22433],[8.547355,47.224376],[8.547201,47.224402],[8.546948,47.224432],[8.546829,47.224444],[8.546482,47.224482],[8.546031,47.224544],[8.545764,47.224574],[8.544877,47.224656],[8.544439,47.224694],[8.544225,47.224713],[8.543991,47.224725],[8.543785,47.224726],[8.54358,47.224718],[8.543355,47.224705],[8.543102,47.224678],[8.54296,47.224657],[8.542792,47.224626],[8.542599,47.224584],[8.542407,47.224534],[8.542185,47.224465],[8.541954,47.224381],[8.541504,47.224212],[8.541395,47.224174],[8.541229,47.224125],[8.54106,47.224088],[8.54086,47.224063],[8.540656,47.224053],[8.540433,47.224061],[8.539239,47.224191],[8.539088,47.224212],[8.53892,47.224246],[8.538775,47.224287],[8.538678,47.22432],[8.538563,47.224366],[8.538371,47.224463],[8.53619,47.225735],[8.536024,47.225826],[8.535835,47.22591],[8.535649,47.225975],[8.535441,47.226028],[8.535231,47.226066],[8.535001,47.226087],[8.534752,47.226092],[8.533241,47.226056],[8.532923,47.226057],[8.532693,47.226064],[8.532243,47.2261],[8.532081,47.226118],[8.532008,47.226125],[8.531825,47.226147],[8.531644,47.226171],[8.531512,47.226194],[8.531262,47.226237],[8.531023,47.22629],[8.530609,47.226394],[8.529324,47.226758],[8.528761,47.226927],[8.528652,47.226965],[8.528538,47.227019],[8.528425,47.227086],[8.528315,47.227161],[8.528229,47.227251],[8.528058,47.227446],[8.527996,47.227518],[8.527721,47.227823],[8.527621,47.227906],[8.527511,47.22797],[8.527397,47.228014],[8.527237,47.228071],[8.527061,47.228098],[8.526936,47.228112],[8.526864,47.228116],[8.526845,47.227826],[8.52684,47.227745],[8.526833,47.227577],[8.52675,47.227578],[8.526706,47.227581],[8.526627,47.227591],[8.526496,47.227612],[8.526395,47.227633],[8.526152,47.227742],[8.526125,47.227754],[8.525444,47.228059],[8.525014,47.228254],[8.524947,47.228279],[8.524812,47.228318],[8.524653,47.228352],[8.524653,47.228383],[8.524625,47.228509],[8.524569,47.228623],[8.524481,47.228758],[8.524272,47.22906],[8.524067,47.229347],[8.523908,47.229553],[8.523829,47.22965],[8.523734,47.229758],[8.523569,47.229939],[8.523378,47.230139],[8.523138,47.230379],[8.523071,47.230438],[8.522985,47.230509],[8.522797,47.23064],[8.522639,47.230724],[8.522493,47.23079],[8.522352,47.230839],[8.522201,47.230883],[8.522025,47.230922],[8.52184,47.23095],[8.521658,47.230968],[8.521519,47.230974],[8.521176,47.230983],[8.520816,47.230989],[8.520226,47.230997],[8.519543,47.231004],[8.519138,47.231005],[8.517408,47.230998],[8.516513,47.230996],[8.516115,47.230994],[8.51586,47.231004],[8.51573,47.231014],[8.515604,47.231028],[8.515406,47.231062],[8.515206,47.231113],[8.515013,47.231179],[8.514939,47.231209],[8.514841,47.231253],[8.51475,47.231301],[8.514643,47.231364],[8.514543,47.231428],[8.51415,47.231713],[8.513497,47.232199],[8.512459,47.232969],[8.512292,47.233103],[8.512164,47.233215],[8.512027,47.233352],[8.511892,47.233508],[8.511827,47.233591],[8.511727,47.233732],[8.511647,47.23387],[8.511566,47.234024],[8.511494,47.23418],[8.511323,47.234562],[8.511274,47.23466],[8.511188,47.234816],[8.5111,47.234953],[8.511041,47.235033],[8.510952,47.235143],[8.510845,47.235264],[8.51118,47.235431],[8.511421,47.235524],[8.511582,47.235368],[8.51177,47.235246],[8.511874,47.235205],[8.512024,47.235178],[8.512145,47.235191],[8.512553,47.235342],[8.512672,47.235387],[8.512815,47.235406],[8.512946,47.235401],[8.513182,47.235348],[8.51359,47.235206],[8.513744,47.235194],[8.513905,47.235214],[8.51489,47.235376],[8.515291,47.235498],[8.515708,47.235559],[8.515951,47.235627],[8.516251,47.235637],[8.516748,47.235618],[8.516931,47.235586],[8.517005,47.23559],[8.517151,47.235639],[8.517727,47.235817],[8.517935,47.235862],[8.518087,47.235931],[8.518337,47.235835],[8.518701,47.235759],[8.518701,47.235759],[8.518337,47.235835],[8.518087,47.235931],[8.517935,47.235862],[8.517727,47.235817],[8.517151,47.235639],[8.517005,47.23559],[8.516931,47.235586],[8.516748,47.235618],[8.516251,47.235637],[8.515951,47.235627],[8.515708,47.235559],[8.515291,47.235498],[8.51489,47.235376],[8.513905,47.235214],[8.513744,47.235194],[8.51359,47.235206],[8.513182,47.235348],[8.512946,47.235401],[8.512815,47.235406],[8.512672,47.235387],[8.512553,47.235342],[8.512145,47.235191],[8.512024,47.235178],[8.511874,47.235205],[8.51177,47.235246],[8.511582,47.235368],[8.511421,47.235524],[8.51118,47.235431],[8.510845,47.235264],[8.509785,47.236333],[8.509097,47.237024],[8.508941,47.237175],[8.508746,47.237354],[8.508675,47.237412],[8.508609,47.237464],[8.50852,47.237529],[8.50847,47.237565],[8.508327,47.237662],[8.508226,47.237725],[8.508159,47.237766],[8.508078,47.237816],[8.507927,47.2379],[8.507779,47.237975],[8.507615,47.238049],[8.507433,47.238125],[8.507213,47.238206],[8.506977,47.238281],[8.506706,47.238355],[8.503925,47.239087],[8.502369,47.239499],[8.502099,47.239579],[8.501878,47.239662],[8.501649,47.239763],[8.501122,47.240011],[8.500993,47.240072],[8.500628,47.240242],[8.500249,47.240421],[8.499848,47.240588],[8.499095,47.240867],[8.499007,47.240905],[8.498959,47.240955],[8.498948,47.241005],[8.498957,47.241053],[8.498989,47.241124],[8.499011,47.241158],[8.498768,47.241222],[8.497883,47.241469],[8.497954,47.241595],[8.497968,47.241642],[8.497972,47.241673],[8.497923,47.241762],[8.497822,47.241837],[8.497674,47.24193],[8.497528,47.24203],[8.497263,47.242215],[8.496803,47.242532],[8.496557,47.242717],[8.496273,47.242936],[8.496156,47.243008],[8.496027,47.243063],[8.49599,47.243115],[8.49596,47.24315],[8.495721,47.24334],[8.495623,47.243436],[8.495121,47.244106],[8.494911,47.244353],[8.494706,47.24449],[8.494462,47.24465],[8.49422,47.244817],[8.494027,47.244997],[8.49388,47.245184],[8.493816,47.245299],[8.493766,47.245415],[8.493713,47.245667],[8.493769,47.245954],[8.49383,47.246196],[8.493841,47.246426],[8.493761,47.247039],[8.49376,47.247163],[8.493773,47.247276],[8.493864,47.247447],[8.493891,47.247479],[8.494105,47.247742],[8.494135,47.247779],[8.494284,47.247953],[8.494481,47.248207],[8.494529,47.248267],[8.494638,47.248404],[8.494673,47.248449],[8.494893,47.248465],[8.495002,47.248473],[8.495198,47.248501],[8.49535,47.248547],[8.495434,47.248588],[8.495472,47.248614],[8.495572,47.248691],[8.495868,47.248997],[8.495994,47.249122],[8.496057,47.249165],[8.496121,47.249199],[8.496247,47.24925],[8.496328,47.249272],[8.496406,47.249286],[8.49655,47.249298],[8.49699,47.249297],[8.497656,47.24929],[8.498063,47.249285],[8.498453,47.24928],[8.498708,47.249267],[8.499041,47.249244],[8.499962,47.249167],[8.500214,47.249156],[8.500364,47.249157],[8.500498,47.24916],[8.500658,47.24917],[8.500797,47.249184],[8.5011,47.249234],[8.501302,47.249277],[8.501435,47.249315],[8.501569,47.24936],[8.50183,47.249472],[8.5027,47.249865],[8.504763,47.250803],[8.506639,47.251653],[8.507062,47.251844],[8.507202,47.251907],[8.508068,47.252299],[8.508592,47.252532],[8.508846,47.252627],[8.50904,47.252687],[8.509335,47.252762],[8.509605,47.252817],[8.509943,47.252866],[8.509996,47.252873],[8.510189,47.252897],[8.510378,47.25292],[8.510612,47.252938],[8.511011,47.252958],[8.5114,47.252939],[8.512579,47.252843],[8.512868,47.252793],[8.513366,47.252637],[8.513421,47.252622],[8.513484,47.252616],[8.513542,47.252618],[8.513601,47.252626],[8.513645,47.252644],[8.513677,47.252662],[8.513696,47.252679],[8.513714,47.252694],[8.513724,47.252711],[8.513737,47.252743],[8.513737,47.252768],[8.513734,47.252795],[8.513723,47.252827],[8.513701,47.252858],[8.513646,47.25291],[8.513494,47.253032],[8.511875,47.254327],[8.510404,47.255505],[8.510277,47.255603],[8.510163,47.255702],[8.510092,47.255771],[8.510045,47.255828],[8.510003,47.255887],[8.509955,47.255969],[8.509929,47.256033],[8.509908,47.256106],[8.509896,47.256169],[8.50989,47.256245],[8.509894,47.256309],[8.509896,47.256342],[8.509905,47.256391],[8.50992,47.256449],[8.509951,47.256545],[8.510754,47.258914],[8.5109,47.259349],[8.510944,47.259459],[8.510983,47.259546],[8.511016,47.259604],[8.511041,47.259638],[8.511069,47.259671],[8.511106,47.25971],[8.511145,47.259744],[8.51119,47.25978],[8.511263,47.259826],[8.511329,47.25986],[8.511485,47.259933],[8.511642,47.26],[8.511834,47.260078],[8.514909,47.26134],[8.515765,47.261691],[8.516042,47.261811],[8.516151,47.261867],[8.516256,47.261931],[8.516359,47.262004],[8.516476,47.262098],[8.516555,47.262168],[8.516642,47.262255],[8.516736,47.262371],[8.516796,47.26246],[8.516853,47.262568],[8.516891,47.262652],[8.516926,47.262743],[8.517001,47.262997],[8.517029,47.263044],[8.517047,47.263066],[8.517072,47.263084],[8.517088,47.263093],[8.517101,47.263098],[8.517134,47.263107],[8.517018,47.263309],[8.516944,47.263433],[8.516696,47.263848],[8.516379,47.264353],[8.516243,47.26454],[8.516067,47.264751],[8.515878,47.264952],[8.51573,47.265083],[8.515566,47.265224],[8.515393,47.265361],[8.515202,47.265511],[8.515041,47.26565],[8.51492,47.265776],[8.514819,47.2659],[8.514597,47.266234],[8.514509,47.266393],[8.514464,47.2665],[8.514425,47.266609],[8.5144,47.266733],[8.514401,47.266784],[8.514409,47.266826],[8.514434,47.266876],[8.51446,47.266916],[8.514502,47.266959],[8.514547,47.266994],[8.51461,47.267026],[8.514677,47.267053],[8.514859,47.267101],[8.514998,47.26713],[8.515188,47.26717],[8.515342,47.267207],[8.515487,47.267262],[8.51556,47.267304],[8.515608,47.26734],[8.515665,47.267393],[8.515697,47.267432],[8.515735,47.267505],[8.515749,47.267556],[8.515752,47.267618],[8.515749,47.267668],[8.515684,47.267852],[8.515623,47.267982],[8.51544,47.268357],[8.515379,47.268427],[8.515309,47.268488],[8.515162,47.268564],[8.51492,47.268661],[8.51484,47.268717],[8.514822,47.268744],[8.514808,47.268776],[8.514804,47.268814],[8.514807,47.268845],[8.514822,47.268882],[8.514841,47.26891],[8.51507,47.269181],[8.515208,47.269349],[8.515234,47.269398],[8.515243,47.269448],[8.515237,47.269504],[8.515202,47.269591],[8.51514,47.269676],[8.515055,47.269756],[8.514915,47.269859],[8.514614,47.270059],[8.514536,47.270125],[8.514477,47.270192],[8.514426,47.270289],[8.514378,47.270423],[8.51434,47.270584],[8.51431,47.270768],[8.514265,47.271048],[8.514258,47.27123],[8.514277,47.271459],[8.514436,47.272698],[8.514456,47.272777],[8.514487,47.272864],[8.514517,47.27293],[8.514599,47.273055],[8.514699,47.273171],[8.514926,47.273398],[8.515001,47.273512],[8.51502,47.273552],[8.515047,47.273609],[8.515062,47.273709],[8.515063,47.273831],[8.515075,47.273877],[8.515096,47.273925],[8.515137,47.273983],[8.515177,47.274024],[8.515234,47.274065],[8.515294,47.274097],[8.515337,47.274115],[8.515413,47.274138],[8.515495,47.274154],[8.515566,47.27416],[8.515639,47.274159],[8.515998,47.274129],[8.516106,47.274126],[8.516224,47.274138],[8.516323,47.274161],[8.516876,47.274329],[8.517172,47.27442],[8.517348,47.274474],[8.517481,47.274517],[8.517565,47.274552],[8.517644,47.274591],[8.517765,47.274672],[8.517785,47.274687],[8.517856,47.274745],[8.517897,47.274786],[8.517936,47.274833],[8.517986,47.274909],[8.518085,47.275107],[8.518191,47.275319],[8.518262,47.275449],[8.518339,47.275557],[8.518395,47.275626],[8.518452,47.275685],[8.518554,47.275777],[8.518635,47.275842],[8.518715,47.275899],[8.518844,47.27598],[8.518976,47.276048],[8.519085,47.276098],[8.519161,47.276129],[8.519338,47.27619],[8.519516,47.276238],[8.519677,47.27627],[8.519726,47.276275],[8.519822,47.276284],[8.519951,47.276283],[8.520078,47.276273],[8.520166,47.276261],[8.520262,47.276241],[8.520412,47.276194],[8.5207,47.276099],[8.520876,47.276052],[8.520944,47.276034],[8.520989,47.276026],[8.521062,47.276015],[8.521143,47.276007],[8.521203,47.276005],[8.521249,47.276005],[8.521339,47.276008],[8.521423,47.276015],[8.521537,47.276037],[8.521592,47.276049],[8.521674,47.276077],[8.521754,47.276112],[8.521872,47.276167],[8.522139,47.276301],[8.522393,47.276442],[8.522458,47.276487],[8.522517,47.276531],[8.522559,47.276566],[8.522594,47.276603],[8.522621,47.276641],[8.522662,47.276736],[8.522678,47.276816],[8.522683,47.276894],[8.522673,47.276976],[8.522428,47.27759],[8.522415,47.277642],[8.522414,47.27767],[8.52242,47.277697],[8.522433,47.277721],[8.52245,47.277744],[8.522469,47.277761],[8.522492,47.277776],[8.522519,47.277789],[8.522551,47.277798],[8.522587,47.277804],[8.522623,47.277805],[8.522655,47.277802],[8.522686,47.277797],[8.522723,47.277785],[8.522757,47.277771],[8.522783,47.277754],[8.522809,47.277733],[8.522847,47.277684],[8.522876,47.277626],[8.523016,47.277345],[8.523054,47.277285],[8.523099,47.277218],[8.523156,47.277147],[8.523221,47.277084],[8.523307,47.277004],[8.523386,47.276939],[8.523482,47.276868],[8.523572,47.276808],[8.523664,47.276755],[8.52376,47.276711],[8.52387,47.276672],[8.523978,47.276649],[8.524216,47.276617],[8.524353,47.276598],[8.524474,47.27658],[8.524609,47.276547],[8.524734,47.276505],[8.524878,47.276445],[8.524963,47.276403],[8.525044,47.276359],[8.525155,47.276296],[8.52524,47.276241],[8.525668,47.275941],[8.52579,47.275864],[8.525903,47.275799],[8.526026,47.275739],[8.526144,47.275688],[8.526401,47.275588],[8.52661,47.275515],[8.526775,47.275465],[8.526936,47.275422],[8.527096,47.275392],[8.527197,47.275379],[8.527296,47.27537],[8.527386,47.275366],[8.52747,47.275368],[8.527544,47.275379],[8.527602,47.275394],[8.527638,47.27541],[8.527675,47.27543],[8.527703,47.27545],[8.527723,47.275466],[8.527747,47.275492],[8.527762,47.27552],[8.527773,47.275549],[8.527777,47.27558],[8.527779,47.275615],[8.527771,47.275783],[8.527767,47.275864],[8.527769,47.275943],[8.527778,47.276021],[8.527798,47.276084],[8.527822,47.276122],[8.527865,47.276164],[8.527918,47.276202],[8.527984,47.276234],[8.52808,47.276257],[8.52818,47.276264],[8.528275,47.276255],[8.528356,47.276233],[8.528452,47.276193],[8.528527,47.276147],[8.528602,47.276081],[8.528708,47.275976],[8.52884,47.275832],[8.529044,47.275563],[8.529212,47.275313],[8.529291,47.275221],[8.529357,47.275161],[8.529417,47.275126],[8.529486,47.275099],[8.529563,47.275089],[8.52964,47.275099],[8.529709,47.275122],[8.529765,47.275156],[8.529795,47.275191],[8.529816,47.27524],[8.529817,47.27529],[8.529796,47.275369],[8.529756,47.275527],[8.529733,47.275667],[8.529726,47.275802],[8.529723,47.275919],[8.52975,47.276084],[8.529786,47.276236],[8.529825,47.276346],[8.529865,47.276442],[8.529994,47.276688],[8.530017,47.276745],[8.530031,47.2768],[8.530024,47.276858],[8.529992,47.276951],[8.529904,47.277163],[8.529844,47.277309],[8.529795,47.277457],[8.52977,47.277528],[8.529729,47.277598],[8.529667,47.277669],[8.529643,47.277693],[8.529597,47.277724],[8.529259,47.277923],[8.529195,47.27797],[8.529118,47.278038],[8.529054,47.278115],[8.529022,47.278172],[8.529002,47.278222],[8.528987,47.278274],[8.528978,47.278354],[8.528973,47.278583],[8.528963,47.278668],[8.528944,47.278755],[8.528724,47.279507],[8.528715,47.279575],[8.52872,47.279643],[8.528748,47.279747],[8.528812,47.279928],[8.528833,47.280034],[8.52885,47.280117],[8.528874,47.280325],[8.528878,47.280456],[8.52886,47.28056],[8.528839,47.280614],[8.528783,47.280711],[8.528619,47.280923],[8.528471,47.281083],[8.528312,47.28124],[8.52805,47.281477],[8.527945,47.281556],[8.527833,47.281633],[8.527765,47.281685],[8.527743,47.281712],[8.527728,47.281736],[8.527718,47.281763],[8.527714,47.281792],[8.527718,47.281821],[8.527727,47.281849],[8.527761,47.281895],[8.527794,47.28192],[8.52783,47.28194],[8.527863,47.281953],[8.527906,47.281965],[8.527947,47.28197],[8.527988,47.281971],[8.528035,47.281967],[8.528079,47.281959],[8.528137,47.281942],[8.5282,47.281921],[8.528333,47.281857],[8.528465,47.281786],[8.528964,47.281485],[8.529177,47.281356],[8.529437,47.281196],[8.529643,47.281052],[8.529773,47.280943],[8.529862,47.280854],[8.529957,47.280747],[8.530024,47.280659],[8.530086,47.280561],[8.530168,47.280403],[8.530218,47.280286],[8.530311,47.280051],[8.530441,47.27967],[8.530468,47.27962],[8.530524,47.279583],[8.530585,47.279566],[8.530645,47.279564],[8.530699,47.279573],[8.530746,47.279592],[8.530787,47.27962],[8.530816,47.279665],[8.530828,47.279723],[8.530819,47.279855],[8.530794,47.279998],[8.530768,47.280106],[8.530734,47.280213],[8.530634,47.28047],[8.530612,47.280546],[8.530607,47.280627],[8.530613,47.280721],[8.530717,47.281239],[8.530726,47.281383],[8.530717,47.281517],[8.530693,47.281607],[8.530658,47.281692],[8.530506,47.281896],[8.530131,47.282332],[8.530115,47.28235],[8.530044,47.28244],[8.529915,47.282619],[8.52978,47.28285],[8.529741,47.282916],[8.529695,47.282987],[8.529583,47.28315],[8.5294,47.28338],[8.529251,47.283541],[8.529111,47.283679],[8.529026,47.283757],[8.528589,47.284131],[8.528431,47.284282],[8.528283,47.284456],[8.52818,47.284591],[8.528042,47.284787],[8.527969,47.284901],[8.527899,47.285017],[8.527863,47.285109],[8.527834,47.285213],[8.527826,47.285317],[8.527828,47.285391],[8.527858,47.285578],[8.527876,47.285678],[8.527908,47.285849],[8.52797,47.286145],[8.528091,47.286773],[8.528165,47.287055],[8.52825,47.287345],[8.528443,47.287905],[8.528525,47.288156],[8.528571,47.288307],[8.528585,47.288351],[8.528598,47.28839],[8.528679,47.288646],[8.528783,47.289001],[8.528839,47.289207],[8.528861,47.289307],[8.528885,47.28944],[8.528894,47.289527],[8.528893,47.289633],[8.528884,47.289713],[8.528863,47.289797],[8.528835,47.289879],[8.528788,47.28998],[8.528722,47.29009],[8.528622,47.290242],[8.528525,47.290377],[8.528252,47.29073],[8.527722,47.291387],[8.52757,47.291575],[8.527429,47.291746],[8.527186,47.292084],[8.526941,47.292409],[8.52683,47.292578],[8.526742,47.292733],[8.526705,47.292818],[8.526689,47.292855],[8.526613,47.29305],[8.526562,47.293176],[8.525581,47.295614],[8.525216,47.296519],[8.524974,47.297122],[8.524906,47.297307],[8.524895,47.297337],[8.524866,47.297431],[8.52484,47.297536],[8.524823,47.297663],[8.524817,47.297841],[8.52484,47.298017],[8.524872,47.298167],[8.524934,47.298416],[8.524959,47.298551],[8.524967,47.298633],[8.524969,47.29877],[8.52496,47.298854],[8.52494,47.298957],[8.5249,47.299079],[8.524763,47.299336],[8.524682,47.299446],[8.524593,47.299544],[8.52451,47.299624],[8.524306,47.299788],[8.52408,47.299944],[8.524003,47.299998],[8.52347,47.300369],[8.523195,47.300562],[8.522859,47.300809],[8.522611,47.30098],[8.522589,47.301024],[8.522568,47.301054],[8.522401,47.30119],[8.52237,47.301215],[8.522264,47.301316],[8.522191,47.3014],[8.522132,47.301473],[8.522074,47.301553],[8.522044,47.301598],[8.522014,47.301627],[8.521952,47.301672],[8.521908,47.301798],[8.521888,47.301923],[8.521882,47.302136],[8.521899,47.302266],[8.521941,47.302425],[8.521996,47.302589],[8.522242,47.303206],[8.5223,47.303364],[8.522323,47.303441],[8.522348,47.303534],[8.522385,47.303687],[8.522405,47.303813],[8.522419,47.3039],[8.522456,47.304257],[8.522455,47.304408],[8.522433,47.304706],[8.522402,47.304912],[8.522382,47.305011],[8.522353,47.305166],[8.522345,47.305207],[8.522323,47.305344],[8.522315,47.305425],[8.522315,47.30549],[8.522321,47.305523],[8.522336,47.305593],[8.522401,47.305733],[8.522442,47.305806],[8.522498,47.305891],[8.522552,47.30596],[8.522679,47.305999],[8.522813,47.3061],[8.523084,47.306299],[8.523367,47.306512],[8.523572,47.306667],[8.524004,47.306994],[8.524123,47.307076],[8.524223,47.307139],[8.524333,47.307235],[8.524439,47.307344],[8.524509,47.30748],[8.524551,47.307548],[8.524596,47.307621],[8.524733,47.307871],[8.52478,47.307959],[8.524853,47.308094],[8.524858,47.308103],[8.5249,47.30818],[8.524951,47.308277],[8.525017,47.308401],[8.525036,47.308441],[8.52516,47.308701],[8.525182,47.308746],[8.525255,47.308908],[8.525299,47.309002],[8.525494,47.309389],[8.52556,47.309527],[8.525596,47.309658],[8.525621,47.309769],[8.52553,47.309775],[8.525206,47.309799],[8.52515,47.309824],[8.525141,47.309869],[8.525145,47.310068],[8.525105,47.31027],[8.525011,47.310322],[8.524526,47.310362],[8.524436,47.310423],[8.524526,47.310362],[8.525011,47.310322],[8.525105,47.31027],[8.525145,47.310068],[8.525141,47.309869],[8.52515,47.309824],[8.525206,47.309799],[8.52553,47.309775],[8.525621,47.309769],[8.525596,47.309658],[8.52556,47.309527],[8.525494,47.309389],[8.525299,47.309002],[8.525255,47.308908],[8.525182,47.308746],[8.52516,47.308701],[8.525036,47.308441],[8.525017,47.308401],[8.524951,47.308277],[8.5249,47.30818],[8.524858,47.308103],[8.524853,47.308094],[8.52478,47.307959],[8.524733,47.307871],[8.524596,47.307621],[8.524551,47.307548],[8.524509,47.30748],[8.524386,47.307414],[8.524299,47.307426],[8.524231,47.307468],[8.524264,47.30768],[8.524288,47.307908],[8.524297,47.30809],[8.524293,47.308285],[8.52427,47.30849],[8.524166,47.308783],[8.524145,47.308993],[8.524097,47.309101],[8.523956,47.310009],[8.523784,47.310954],[8.523656,47.311657],[8.523542,47.31211],[8.523364,47.312602],[8.52317,47.313012],[8.522972,47.313395],[8.522722,47.313811],[8.522601,47.31401],[8.522048,47.314876],[8.521782,47.315357],[8.521507,47.315879],[8.521344,47.316257],[8.521182,47.316711],[8.521121,47.316871],[8.521036,47.317129],[8.52096,47.317386],[8.520863,47.317806],[8.520817,47.318052],[8.520795,47.318202],[8.520708,47.318874],[8.520697,47.319143],[8.520691,47.319315],[8.520674,47.319715],[8.52079,47.320078],[8.520812,47.320154],[8.520829,47.320289],[8.520825,47.320397],[8.520807,47.320522],[8.520804,47.320533],[8.520717,47.320904],[8.520611,47.321024],[8.520525,47.321171],[8.52031,47.321431],[8.520208,47.321597],[8.519821,47.322211],[8.51938,47.3229],[8.519159,47.323265],[8.519049,47.323438],[8.51893,47.323639],[8.518909,47.323676],[8.518887,47.323714],[8.518832,47.323811],[8.518764,47.323936],[8.518626,47.324197],[8.518611,47.324225],[8.518497,47.324519],[8.518455,47.324691],[8.518436,47.324867],[8.51847,47.32521],[8.518559,47.325522],[8.518881,47.32659],[8.518897,47.326653],[8.518957,47.326901],[8.518966,47.327],[8.518961,47.327104],[8.518934,47.327285],[8.518895,47.327419],[8.518859,47.327555],[8.518779,47.327708],[8.518671,47.327855],[8.518285,47.328281],[8.518189,47.328391],[8.517899,47.328709],[8.517754,47.328854],[8.51747,47.329173],[8.516969,47.329764],[8.516856,47.329933],[8.51676,47.330095],[8.516696,47.330258],[8.516644,47.330417],[8.516618,47.330567],[8.516611,47.330717],[8.51664,47.330936],[8.516674,47.331094],[8.516737,47.331246],[8.516818,47.331394],[8.516891,47.331515],[8.517,47.331659],[8.517041,47.331708],[8.517231,47.331898],[8.517638,47.332272],[8.51793,47.332541],[8.517951,47.33256],[8.517954,47.332563],[8.517974,47.332581],[8.518171,47.332792],[8.518269,47.332896],[8.51838,47.333014],[8.518457,47.333095],[8.518697,47.333318],[8.518926,47.333551],[8.519095,47.33375],[8.519211,47.33391],[8.519303,47.334109],[8.519364,47.334322],[8.519385,47.334478],[8.519398,47.334736],[8.519341,47.334944],[8.519318,47.334994],[8.519287,47.335036],[8.519243,47.335096],[8.519212,47.335139],[8.519128,47.335249],[8.51911,47.335271],[8.519096,47.335288],[8.519077,47.335312],[8.518905,47.33548],[8.518833,47.335544],[8.51874,47.335613],[8.518507,47.335787],[8.518354,47.3359],[8.518258,47.336026],[8.518218,47.336129],[8.518209,47.336243],[8.518224,47.336346],[8.518289,47.336447],[8.518418,47.336606],[8.518598,47.33676],[8.518641,47.336795],[8.519036,47.337092],[8.519048,47.337102],[8.519067,47.337118],[8.519192,47.337223],[8.519226,47.337282],[8.519239,47.337326],[8.519247,47.337356],[8.519254,47.337382],[8.519259,47.337461],[8.519251,47.337537],[8.519222,47.33778],[8.519147,47.338212],[8.519135,47.338282],[8.519128,47.338349],[8.519107,47.338567],[8.519063,47.338952],[8.519061,47.338969],[8.519058,47.338989],[8.519057,47.33916],[8.519063,47.339355],[8.519064,47.339373],[8.519075,47.339745],[8.519091,47.34005],[8.519122,47.34042],[8.519128,47.340477],[8.519136,47.340571],[8.51917,47.340693],[8.5192,47.340885],[8.519214,47.34114],[8.519231,47.341587],[8.519269,47.34208],[8.519273,47.342195],[8.519298,47.342385],[8.519346,47.342939],[8.519346,47.34295],[8.519348,47.342965],[8.519374,47.343158],[8.519394,47.343276],[8.519395,47.343309],[8.519395,47.343324],[8.519397,47.343421],[8.519447,47.343572],[8.519502,47.343994],[8.519537,47.344405],[8.519591,47.344811],[8.519619,47.345],[8.51966,47.345223],[8.519733,47.345558],[8.519777,47.345733],[8.519839,47.345923],[8.519887,47.346028],[8.519937,47.346137],[8.52004,47.346317],[8.520139,47.34647],[8.520217,47.346581],[8.520289,47.346666],[8.520416,47.3468],[8.520569,47.34695],[8.520703,47.347066],[8.520796,47.34714],[8.520974,47.347276],[8.52116,47.347413],[8.521499,47.347655],[8.521936,47.347968],[8.522283,47.348232],[8.523674,47.349242],[8.52388,47.349386],[8.524397,47.349747],[8.524619,47.349909],[8.524789,47.350048],[8.524943,47.350186],[8.525166,47.350413],[8.525255,47.350515],[8.525336,47.350616],[8.525426,47.350736],[8.525497,47.350842],[8.525597,47.351014],[8.525673,47.351161],[8.525728,47.351275],[8.525771,47.35139],[8.525795,47.351482],[8.525808,47.351554],[8.525813,47.351622],[8.525809,47.351672],[8.525801,47.351713],[8.525784,47.351775],[8.525765,47.351821],[8.52572,47.351909],[8.525649,47.352014],[8.525546,47.352132],[8.525386,47.352281],[8.525323,47.352338],[8.525049,47.352588],[8.524716,47.352911],[8.524691,47.352934],[8.524604,47.353017],[8.524514,47.353114],[8.524412,47.353237],[8.524306,47.353359],[8.524139,47.353593],[8.524108,47.353634],[8.523791,47.354161],[8.52376,47.354209],[8.523708,47.354303],[8.523642,47.35443],[8.523564,47.354637],[8.52351,47.354742],[8.523343,47.355029],[8.522851,47.355837],[8.52243,47.356533],[8.522226,47.356866],[8.522146,47.356996],[8.522141,47.357046],[8.522101,47.357111],[8.52202,47.357232],[8.521934,47.357361],[8.521888,47.357449],[8.52187,47.357506],[8.521859,47.357551],[8.521851,47.357689],[8.52185,47.357775],[8.521883,47.35813],[8.521899,47.3583],[8.521923,47.358672],[8.521929,47.358718],[8.521945,47.358775],[8.521972,47.358846],[8.521988,47.358876],[8.521996,47.35889],[8.522045,47.358958],[8.522115,47.359038],[8.522357,47.359334],[8.522417,47.359396],[8.522509,47.359483],[8.522553,47.359524],[8.522832,47.359816],[8.522907,47.359886],[8.52294,47.359916],[8.52295,47.359933],[8.522956,47.359954],[8.522978,47.360051],[8.523088,47.36009],[8.523194,47.360119],[8.523528,47.360213],[8.523605,47.360235],[8.523676,47.360262],[8.523774,47.360303],[8.523853,47.360343],[8.523945,47.360392],[8.524216,47.360544],[8.52441,47.360656],[8.524543,47.36073],[8.524872,47.360908],[8.525153,47.361072],[8.525222,47.36111],[8.525382,47.361208],[8.525504,47.36129],[8.525628,47.361375],[8.525856,47.361529],[8.526053,47.361666],[8.526125,47.361715],[8.52623,47.361786],[8.526323,47.361852],[8.526493,47.361986],[8.526566,47.362048],[8.526573,47.362054],[8.526631,47.362108],[8.526687,47.362162],[8.526733,47.362212],[8.526837,47.362325],[8.526998,47.362505],[8.527041,47.362553],[8.527323,47.362878],[8.527441,47.363014],[8.527861,47.36349],[8.527913,47.363547],[8.528006,47.363643],[8.52809,47.363721],[8.528164,47.363778],[8.528219,47.363818],[8.528283,47.363857],[8.528402,47.363919],[8.52856,47.363989],[8.528717,47.364042],[8.529379,47.364234],[8.529622,47.364303],[8.529729,47.364333],[8.529865,47.364365],[8.529977,47.364394],[8.530086,47.364431],[8.530127,47.364377],[8.530625,47.363312],[8.530767,47.363001],[8.530829,47.36282]]}}